{
"type": "FeatureCollection",
"name": "selected_municipalities",
"crs": { "type": "name", "properties": { "name": "urn:ogc:def:crs:OGC:1.3:CRS84" } },
"features": [
{ "type": "Feature", "properties": { "lau_1": "187", "label_en": "Vallensbæk", "label_dk": "Vallensbæk", "iso_3166_2": "DK-84" }, "geometry": { "type": "Polygon", "coordinates": [ [ [ 12.391438106307687, 55.613217308236017, -999.0 ], [ 12.387618889657569, 55.612698793762156, -999.0 ], [ 12.378762987221972, 55.614898187829745, -999.0 ], [ 12.346621424990722, 55.637583583096379, -999.0 ], [ 12.341335779338623, 55.641962560793012, -999.0 ], [ 12.347041040133689, 55.647714020025305, -999.0 ], [ 12.354200380331637, 55.649253608828246, -999.0 ], [ 12.352740021816489, 55.654859018618097, -999.0 ], [ 12.364989955209982, 55.656213723661836, -999.0 ], [ 12.392383321168571, 55.629114582359342, -999.0 ], [ 12.403387098597612, 55.618379636915535, -999.0 ], [ 12.403875292208063, 55.616486993303262, -999.0 ], [ 12.40387433348733, 55.616486930024152, -999.0 ], [ 12.403429005105558, 55.616481318014245, -999.0 ], [ 12.399333415191231, 55.615785798887153, -999.0 ], [ 12.398727126071725, 55.61538902075521, -999.0 ], [ 12.398680057776126, 55.614662035767374, -999.0 ], [ 12.399721846100467, 55.613850895366326, -999.0 ], [ 12.398748767370071, 55.612520213928264, -999.0 ], [ 12.399037915035494, 55.611640041848638, -999.0 ], [ 12.397640439910143, 55.611094372563834, -999.0 ], [ 12.396968335798944, 55.611220903880707, -999.0 ], [ 12.397768410898216, 55.612205737700101, -999.0 ], [ 12.397096743330161, 55.612521073343402, -999.0 ], [ 12.397014855136957, 55.612676194823827, -999.0 ], [ 12.396318011960409, 55.612884329141608, -999.0 ], [ 12.394852702909049, 55.611738095812846, -999.0 ], [ 12.393988523671531, 55.612031774477153, -999.0 ], [ 12.39387348139646, 55.612538469988571, -999.0 ], [ 12.394406310677232, 55.613189060489105, -999.0 ], [ 12.395283819198372, 55.613416501330896, -999.0 ], [ 12.395953638204263, 55.613263069561683, -999.0 ], [ 12.396245884619878, 55.613335890241757, -999.0 ], [ 12.397475805878008, 55.613229861947076, -999.0 ], [ 12.395902583259097, 55.614325450182662, -999.0 ], [ 12.395612330296167, 55.614459371682784, -999.0 ], [ 12.395062624022758, 55.614348727446959, -999.0 ], [ 12.391438106307687, 55.613217308236017, -999.0 ] ] ] } },
{ "type": "Feature", "properties": { "lau_1": "187", "label_en": "Vallensbæk", "label_dk": "Vallensbæk", "iso_3166_2": "DK-84" }, "geometry": { "type": "Polygon", "coordinates": [ [ [ 12.404491937601719, 55.614095898508246, -999.0 ], [ 12.404914269487481, 55.612457822858751, -999.0 ], [ 12.404906901885973, 55.61245712847947, -999.0 ], [ 12.402150644976157, 55.611814393756141, -999.0 ], [ 12.400323699519229, 55.611262696695434, -999.0 ], [ 12.400904228756968, 55.613746151783097, -999.0 ], [ 12.404491937601719, 55.614095898508246, -999.0 ] ] ] } },
{ "type": "Feature", "properties": { "lau_1": "219", "label_en": "Hillerød", "label_dk": "Hillerød", "iso_3166_2": "DK-84" }, "geometry": { "type": "Polygon", "coordinates": [ [ [ 12.114985339917601, 55.914274166621283, -999.0 ], [ 12.106896414873681, 55.921607708462361, -999.0 ], [ 12.089072568706658, 55.922155253237854, -999.0 ], [ 12.082187835215143, 55.929609675164642, -999.0 ], [ 12.085532919866626, 55.949114842196821, -999.0 ], [ 12.125938208628535, 55.972539416305054, -999.0 ], [ 12.170303040245177, 55.968492572690614, -999.0 ], [ 12.197505269362793, 55.972365301583828, -999.0 ], [ 12.205409162071666, 55.978372092194803, -999.0 ], [ 12.218425855325165, 55.980262226024188, -999.0 ], [ 12.221673008923169, 55.990956684109427, -999.0 ], [ 12.234390064097951, 55.993230627627511, -999.0 ], [ 12.249347895613555, 55.98854858028561, -999.0 ], [ 12.251051756581067, 55.991839052186592, -999.0 ], [ 12.258204675808491, 55.989159724131717, -999.0 ], [ 12.266653328694115, 55.991012747452373, -999.0 ], [ 12.266856509204709, 55.987339262965541, -999.0 ], [ 12.273774562772671, 55.988162517988656, -999.0 ], [ 12.272563984425219, 55.991296392226737, -999.0 ], [ 12.287549764380485, 55.996255686253157, -999.0 ], [ 12.282253982079009, 56.002663260877092, -999.0 ], [ 12.377584651712704, 56.00163290736733, -999.0 ], [ 12.368345250386879, 55.981944341331946, -999.0 ], [ 12.367479987629849, 55.971259975747763, -999.0 ], [ 12.357912318158331, 55.968158706165795, -999.0 ], [ 12.363579356727673, 55.953852531267472, -999.0 ], [ 12.34608878269434, 55.948943711268967, -999.0 ], [ 12.356195040328267, 55.941862571750001, -999.0 ], [ 12.367056820412614, 55.940388129801214, -999.0 ], [ 12.374397282693861, 55.928831661839638, -999.0 ], [ 12.370313063042252, 55.927352203158307, -999.0 ], [ 12.394689180167138, 55.911091903242401, -999.0 ], [ 12.373115417435274, 55.899169970229075, -999.0 ], [ 12.367922134561159, 55.896120507501863, -999.0 ], [ 12.360876360122765, 55.892177428106379, -999.0 ], [ 12.354547128879549, 55.896144330482038, -999.0 ], [ 12.321628800996123, 55.890672193941441, -999.0 ], [ 12.310529778185364, 55.892409924050078, -999.0 ], [ 12.311374843979852, 55.887496247682705, -999.0 ], [ 12.318450117913127, 55.883052956189871, -999.0 ], [ 12.31560717681279, 55.880666177934714, -999.0 ], [ 12.307045492759695, 55.881364211079031, -999.0 ], [ 12.301899764515982, 55.886312467753186, -999.0 ], [ 12.299795679482168, 55.88470566553999, -999.0 ], [ 12.274735013216967, 55.882300682409429, -999.0 ], [ 12.279653702051709, 55.876712336234753, -999.0 ], [ 12.278568325228964, 55.864792783856181, -999.0 ], [ 12.261877305896556, 55.858125168180621, -999.0 ], [ 12.26265048826985, 55.854193763995333, -999.0 ], [ 12.234244384531459, 55.853379962422423, -999.0 ], [ 12.231298560411089, 55.845815535745807, -999.0 ], [ 12.226909310405825, 55.846263475647312, -999.0 ], [ 12.226906781706445, 55.845076803567679, -999.0 ], [ 12.215996348209551, 55.847439496567283, -999.0 ], [ 12.207762155984748, 55.846611741013277, -999.0 ], [ 12.200413883322046, 55.868011481922693, -999.0 ], [ 12.176739724810073, 55.879422614259219, -999.0 ], [ 12.12387080258824, 55.866940992405915, -999.0 ], [ 12.120074635521851, 55.867450907377375, -999.0 ], [ 12.110231425963491, 55.881508940798341, -999.0 ], [ 12.094032742499046, 55.886367504290149, -999.0 ], [ 12.096600429927738, 55.892092441475398, -999.0 ], [ 12.088196529542, 55.894847842813618, -999.0 ], [ 12.116614484456433, 55.905656437595091, -999.0 ], [ 12.114985339917601, 55.914274166621283, -999.0 ] ] ] } },
{ "type": "Feature", "properties": { "lau_1": "400", "label_en": "Bornholm", "label_dk": "Bornholm", "iso_3166_2": "DK-84" }, "geometry": { "type": "Polygon", "coordinates": [ [ [ 14.703237928856847, 55.200145579696176, -999.0 ], [ 14.706275741048817, 55.205968608106545, -999.0 ], [ 14.705874614994785, 55.209426104592104, -999.0 ], [ 14.706584830502077, 55.211742238383003, -999.0 ], [ 14.70734604667083, 55.212219615360404, -999.0 ], [ 14.70859837136816, 55.213376073515619, -999.0 ], [ 14.707998869746024, 55.214025336561356, -999.0 ], [ 14.70816027881574, 55.214710897013518, -999.0 ], [ 14.709027097226922, 55.215813433059367, -999.0 ], [ 14.710484502033559, 55.218067468107179, -999.0 ], [ 14.71163444309704, 55.222892439049097, -999.0 ], [ 14.712767250329113, 55.224090485217459, -999.0 ], [ 14.714253909450909, 55.225010845864126, -999.0 ], [ 14.71725420564821, 55.229226731177832, -999.0 ], [ 14.720004029341485, 55.232464134049692, -999.0 ], [ 14.720646738572086, 55.234630358654954, -999.0 ], [ 14.720717169338455, 55.235338192011241, -999.0 ], [ 14.721718898846898, 55.236589503962293, -999.0 ], [ 14.723099186799447, 55.238313780806514, -999.0 ], [ 14.725424087345605, 55.239797709316292, -999.0 ], [ 14.727773663498468, 55.241451471475614, -999.0 ], [ 14.731144621558181, 55.244722430956195, -999.0 ], [ 14.729369560300016, 55.244869053924369, -999.0 ], [ 14.729489707960976, 55.245592548820156, -999.0 ], [ 14.732257213577491, 55.245444175918436, -999.0 ], [ 14.735656321704733, 55.248686695283972, -999.0 ], [ 14.735835699650664, 55.248183132384142, -999.0 ], [ 14.736793401787558, 55.248813121296784, -999.0 ], [ 14.736469741729213, 55.248972413642242, -999.0 ], [ 14.737239947831348, 55.249395193738671, -999.0 ], [ 14.739974600144592, 55.251633716900777, -999.0 ], [ 14.741355013445974, 55.253332966989738, -999.0 ], [ 14.741374919592658, 55.253362724318201, -999.0 ], [ 14.741593188231224, 55.253687387161193, -999.0 ], [ 14.745934672629527, 55.260147320518698, -999.0 ], [ 14.746697059948778, 55.262037741796682, -999.0 ], [ 14.749492745117978, 55.264687294829955, -999.0 ], [ 14.752525359019586, 55.268315815003312, -999.0 ], [ 14.75254719415369, 55.268683865697824, -999.0 ], [ 14.751850121451547, 55.268986876240831, -999.0 ], [ 14.751917115240607, 55.26988391150315, -999.0 ], [ 14.752162645866902, 55.271033566507036, -999.0 ], [ 14.753216331462736, 55.271775935195627, -999.0 ], [ 14.753152096532313, 55.272094042801854, -999.0 ], [ 14.752539956641881, 55.272222002328917, -999.0 ], [ 14.752568970691572, 55.27329187143232, -999.0 ], [ 14.753998488532066, 55.274124493600411, -999.0 ], [ 14.754167393202783, 55.274962698456761, -999.0 ], [ 14.755647147183204, 55.276684130162529, -999.0 ], [ 14.757313083156744, 55.277514538985614, -999.0 ], [ 14.757310400186793, 55.27760468639044, -999.0 ], [ 14.757391306516425, 55.277618863118477, -999.0 ], [ 14.757319485593031, 55.277667270936725, -999.0 ], [ 14.757311175626697, 55.27826179924466, -999.0 ], [ 14.756274414323697, 55.278832957710009, -999.0 ], [ 14.75519230252274, 55.278983155365168, -999.0 ], [ 14.754657175658483, 55.278990454903223, -999.0 ], [ 14.754630663191328, 55.279459814226612, -999.0 ], [ 14.752160488839435, 55.281674055522927, -999.0 ], [ 14.75204415587964, 55.28185059180322, -999.0 ], [ 14.751269627944046, 55.286514228682933, -999.0 ], [ 14.751641112557222, 55.287240692016731, -999.0 ], [ 14.751710058076469, 55.287375615079611, -999.0 ], [ 14.752522512237881, 55.288300437407187, -999.0 ], [ 14.754341199166122, 55.289636794349001, -999.0 ], [ 14.755860353657875, 55.29021311551088, -999.0 ], [ 14.760074159579412, 55.290877986034921, -999.0 ], [ 14.760461334607827, 55.291696856291161, -999.0 ], [ 14.761899643877571, 55.292366952542849, -999.0 ], [ 14.762785166911931, 55.293900397313074, -999.0 ], [ 14.764040970994465, 55.294291044137417, -999.0 ], [ 14.764568048145099, 55.294986252461321, -999.0 ], [ 14.764499721972623, 55.295709655151249, -999.0 ], [ 14.765908329233426, 55.296174067460107, -999.0 ], [ 14.767631489747405, 55.296956639276424, -999.0 ], [ 14.769032625303646, 55.296827231766386, -999.0 ], [ 14.769385109354863, 55.296972564854592, -999.0 ], [ 14.769398125028358, 55.297061969160978, -999.0 ], [ 14.769606983966879, 55.297196104276523, -999.0 ], [ 14.76942405569705, 55.297456833349401, -999.0 ], [ 14.76950996261062, 55.298046901621753, -999.0 ], [ 14.771132880685297, 55.298465091123866, -999.0 ], [ 14.771592428247342, 55.298695364032675, -999.0 ], [ 14.773227116189457, 55.299193987961338, -999.0 ], [ 14.774816419274472, 55.298839539820314, -999.0 ], [ 14.775829917581049, 55.298215320084324, -999.0 ], [ 14.776667049338471, 55.297788505730928, -999.0 ], [ 14.778010903194666, 55.29694153952331, -999.0 ], [ 14.778441999417661, 55.296110881685799, -999.0 ], [ 14.779226886378488, 55.295434467062137, -999.0 ], [ 14.778890176178306, 55.294748282954622, -999.0 ], [ 14.778603245984081, 55.293429583270061, -999.0 ], [ 14.77802262626706, 55.291935779151522, -999.0 ], [ 14.777189811028437, 55.291417174560998, -999.0 ], [ 14.777509873320264, 55.290690812623488, -999.0 ], [ 14.778318189102379, 55.289959276551954, -999.0 ], [ 14.778299943927786, 55.289834112347634, -999.0 ], [ 14.778512756140639, 55.289778998736502, -999.0 ], [ 14.778694261815874, 55.289617344995115, -999.0 ], [ 14.779927981329525, 55.289531761047861, -999.0 ], [ 14.782991954949894, 55.289773322150857, -999.0 ], [ 14.783190513480658, 55.288863668890869, -999.0 ], [ 14.785415146143805, 55.28756965831046, -999.0 ], [ 14.786073099534116, 55.287322329551515, -999.0 ], [ 14.786993407826808, 55.287683676418901, -999.0 ], [ 14.787313238248782, 55.28771348071993, -999.0 ], [ 14.787867829104574, 55.287555587472063, -999.0 ], [ 14.790084645835689, 55.286924511719086, -999.0 ], [ 14.790593719490525, 55.286198119003288, -999.0 ], [ 14.791755482105231, 55.28583676536104, -999.0 ], [ 14.792818001597144, 55.285336087566819, -999.0 ], [ 14.793384485905319, 55.285003047991545, -999.0 ], [ 14.793965290051498, 55.284444267460565, -999.0 ], [ 14.795247138493824, 55.284581288289601, -999.0 ], [ 14.795856642421077, 55.284111153993202, -999.0 ], [ 14.795421803945022, 55.283078595660385, -999.0 ], [ 14.794913918313654, 55.282193550607168, -999.0 ], [ 14.796435846565226, 55.282247107587231, -999.0 ], [ 14.796716428484299, 55.282008687322872, -999.0 ], [ 14.796601458203455, 55.281438017904023, -999.0 ], [ 14.797252680917641, 55.281037906159789, -999.0 ], [ 14.798542219819078, 55.281012482317848, -999.0 ], [ 14.799754839896094, 55.281323794965175, -999.0 ], [ 14.800629285096342, 55.281156088308258, -999.0 ], [ 14.801042718538143, 55.280101118574457, -999.0 ], [ 14.800674523147862, 55.279632544606329, -999.0 ], [ 14.800819243205307, 55.279112515920538, -999.0 ], [ 14.801373669479892, 55.278266878958945, -999.0 ], [ 14.801310992110635, 55.278161839209297, -999.0 ], [ 14.801553688841206, 55.277988228362481, -999.0 ], [ 14.802294952745394, 55.277880870402278, -999.0 ], [ 14.802882293747601, 55.278014907326444, -999.0 ], [ 14.80416518443155, 55.277944726607323, -999.0 ], [ 14.805271786903187, 55.277639879098743, -999.0 ], [ 14.806203349247832, 55.277001284120431, -999.0 ], [ 14.806177034705543, 55.27649840944094, -999.0 ], [ 14.806350283895778, 55.275742950455673, -999.0 ], [ 14.805101193711177, 55.275289409345021, -999.0 ], [ 14.80564911227153, 55.27483115949196, -999.0 ], [ 14.807099934992927, 55.274077758580141, -999.0 ], [ 14.806654464621015, 55.27297372472708, -999.0 ], [ 14.806706629967607, 55.272899216924607, -999.0 ], [ 14.808173072521647, 55.272253083593149, -999.0 ], [ 14.809234032901911, 55.272391488440647, -999.0 ], [ 14.811588115964769, 55.270055502911674, -999.0 ], [ 14.811006048977196, 55.269849239683197, -999.0 ], [ 14.811582522030067, 55.269371591113732, -999.0 ], [ 14.812002409893168, 55.268901418665038, -999.0 ], [ 14.812320061443144, 55.267625915752092, -999.0 ], [ 14.814144154250624, 55.267700812701626, -999.0 ], [ 14.817017593113757, 55.26439463924455, -999.0 ], [ 14.815977004971598, 55.262658131203729, -999.0 ], [ 14.815974053318335, 55.262653050914501, -999.0 ], [ 14.815475384800234, 55.262154748698819, -999.0 ], [ 14.816249188027008, 55.260443318038703, -999.0 ], [ 14.818224171373409, 55.260366893966854, -999.0 ], [ 14.817293397945747, 55.259394130869396, -999.0 ], [ 14.81862099648828, 55.25888052659019, -999.0 ], [ 14.818251500974114, 55.258403065535013, -999.0 ], [ 14.819347573808384, 55.257063301029532, -999.0 ], [ 14.820862483744145, 55.256000565482445, -999.0 ], [ 14.822257946065999, 55.255735738010621, -999.0 ], [ 14.822657207949433, 55.254267240732254, -999.0 ], [ 14.824574632004065, 55.252834093475443, -999.0 ], [ 14.826509459208028, 55.252057256955467, -999.0 ], [ 14.827654641166118, 55.252128437843176, -999.0 ], [ 14.830052404951536, 55.251392382014238, -999.0 ], [ 14.835297059420061, 55.249439451369362, -999.0 ], [ 14.834951977800708, 55.249291798694642, -999.0 ], [ 14.83423760636925, 55.248986128451179, -999.0 ], [ 14.834263427013536, 55.248973096827811, -999.0 ], [ 14.836922551652771, 55.247632987772626, -999.0 ], [ 14.839392835124794, 55.24792854519287, -999.0 ], [ 14.83931617020567, 55.248157288156868, -999.0 ], [ 14.838846722683508, 55.248179822109329, -999.0 ], [ 14.837819700002791, 55.248697243998166, -999.0 ], [ 14.838380672012871, 55.248868376653014, -999.0 ], [ 14.839930983619329, 55.248517672649065, -999.0 ], [ 14.842269727784524, 55.247988464843743, -999.0 ], [ 14.842474950123098, 55.247348431292799, -999.0 ], [ 14.843001713324476, 55.247287119777354, -999.0 ], [ 14.84492448240972, 55.247716893616349, -999.0 ], [ 14.848172184253645, 55.247191693798477, -999.0 ], [ 14.848416193529676, 55.246387736786815, -999.0 ], [ 14.850036762409838, 55.246156766158506, -999.0 ], [ 14.851563113644771, 55.244858998697453, -999.0 ], [ 14.851535134616041, 55.243599983349554, -999.0 ], [ 14.853921206193728, 55.242683942078166, -999.0 ], [ 14.854540906799484, 55.242077949688628, -999.0 ], [ 14.855078925039701, 55.241772971513861, -999.0 ], [ 14.856659978056193, 55.242237009808463, -999.0 ], [ 14.8587221662321, 55.241903629037253, -999.0 ], [ 14.859034522251012, 55.241564488758939, -999.0 ], [ 14.858601189851422, 55.241297277887995, -999.0 ], [ 14.859230396679973, 55.240969882661474, -999.0 ], [ 14.860727584491663, 55.241185834530242, -999.0 ], [ 14.861566940342486, 55.24100134535216, -999.0 ], [ 14.861887373000929, 55.240823855220206, -999.0 ], [ 14.861899826474014, 55.24081749334178, -999.0 ], [ 14.86206323294277, 55.240734355851622, -999.0 ], [ 14.863460887016984, 55.240702997039747, -999.0 ], [ 14.865010697256615, 55.2411684339422, -999.0 ], [ 14.868364508486781, 55.239980360969902, -999.0 ], [ 14.870556091014569, 55.238605221023306, -999.0 ], [ 14.871101834407929, 55.238993001883024, -999.0 ], [ 14.871611469322254, 55.238923386278387, -999.0 ], [ 14.872948233287232, 55.238480731490888, -999.0 ], [ 14.875246009596987, 55.237505494909009, -999.0 ], [ 14.875451560776407, 55.237297505365085, -999.0 ], [ 14.876143903852554, 55.235481518240896, -999.0 ], [ 14.877161277291043, 55.235117263208856, -999.0 ], [ 14.877849135392028, 55.235507149150308, -999.0 ], [ 14.879874224472314, 55.233968820838271, -999.0 ], [ 14.879957857641946, 55.233469626497246, -999.0 ], [ 14.879295297573595, 55.232718420357401, -999.0 ], [ 14.8810877537334, 55.230993252688549, -999.0 ], [ 14.881971309635775, 55.230896504444168, -999.0 ], [ 14.882292509128131, 55.229980692978849, -999.0 ], [ 14.883510779022862, 55.228634363694347, -999.0 ], [ 14.884121291117204, 55.228289728004448, -999.0 ], [ 14.886494260694608, 55.227508679190287, -999.0 ], [ 14.893175867845482, 55.226149735297817, -999.0 ], [ 14.89373934219771, 55.225807327667297, -999.0 ], [ 14.898911540318627, 55.224575220981414, -999.0 ], [ 14.902006967411852, 55.223677779692437, -999.0 ], [ 14.904814152954826, 55.22274923914032, -999.0 ], [ 14.907485624198756, 55.222709508030235, -999.0 ], [ 14.91266399598714, 55.220783267933413, -999.0 ], [ 14.913900195405452, 55.22062411575579, -999.0 ], [ 14.916461066542142, 55.221111733415789, -999.0 ], [ 14.921842087292687, 55.219598363823387, -999.0 ], [ 14.923591942398804, 55.218342736384862, -999.0 ], [ 14.924211623286267, 55.218168496151286, -999.0 ], [ 14.925375822585517, 55.217949710849048, -999.0 ], [ 14.927963159174478, 55.217031324200306, -999.0 ], [ 14.928842131001664, 55.216484295892322, -999.0 ], [ 14.92846206591387, 55.215836605508244, -999.0 ], [ 14.929184080501491, 55.215504296886074, -999.0 ], [ 14.929986765673817, 55.21476291272095, -999.0 ], [ 14.932261896200448, 55.214075726979857, -999.0 ], [ 14.935555251060617, 55.211772256538971, -999.0 ], [ 14.935896921413676, 55.21166365339046, -999.0 ], [ 14.939839168817716, 55.210410631319355, -999.0 ], [ 14.943603159437565, 55.209785513699906, -999.0 ], [ 14.943631507149885, 55.209775034610132, -999.0 ], [ 14.943676585599668, 55.20975851571918, -999.0 ], [ 14.94487157790191, 55.209318352610097, -999.0 ], [ 14.946296994881859, 55.209374682352255, -999.0 ], [ 14.949457549024778, 55.210399458041543, -999.0 ], [ 14.952736702860513, 55.210743111257507, -999.0 ], [ 14.956099805556329, 55.212171948855833, -999.0 ], [ 14.956984478528742, 55.213136959386667, -999.0 ], [ 14.956988488960841, 55.213139553863471, -999.0 ], [ 14.957718691012662, 55.213623165837873, -999.0 ], [ 14.960123245265461, 55.213802411035644, -999.0 ], [ 14.960799889398851, 55.214219396741584, -999.0 ], [ 14.963249541258573, 55.213964215419267, -999.0 ], [ 14.965069066675905, 55.214127042347293, -999.0 ], [ 14.966562158060624, 55.214422905734722, -999.0 ], [ 14.96728040509384, 55.214801802478817, -999.0 ], [ 14.966439051194625, 55.215176216380577, -999.0 ], [ 14.966229195540476, 55.215456612370602, -999.0 ], [ 14.96833766816891, 55.215236078646797, -999.0 ], [ 14.969322462417434, 55.215187728636394, -999.0 ], [ 14.969644786247759, 55.214712735755263, -999.0 ], [ 14.970914754629842, 55.214047150239466, -999.0 ], [ 14.970688044529281, 55.213166961711401, -999.0 ], [ 14.970929498789671, 55.212677929824864, -999.0 ], [ 14.97166268672874, 55.212317798948369, -999.0 ], [ 14.972188265048032, 55.212147928044381, -999.0 ], [ 14.97301348303538, 55.213133758822082, -999.0 ], [ 14.974131069732296, 55.212502633594418, -999.0 ], [ 14.977303430031091, 55.211086232652903, -999.0 ], [ 14.978296197072304, 55.210254127030765, -999.0 ], [ 14.97757544179979, 55.209335220187796, -999.0 ], [ 14.978781246678956, 55.20866369625201, -999.0 ], [ 14.979799637365932, 55.208316494770372, -999.0 ], [ 14.980519217866899, 55.207866942370948, -999.0 ], [ 14.980709759789278, 55.206831189322735, -999.0 ], [ 14.980108831502038, 55.206185504928975, -999.0 ], [ 14.981174030763096, 55.205835987171199, -999.0 ], [ 14.982236286861275, 55.204316171576174, -999.0 ], [ 14.983457932148507, 55.202914545372167, -999.0 ], [ 14.983453251656181, 55.202883444162126, -999.0 ], [ 14.983230642842162, 55.201404170024674, -999.0 ], [ 14.984247581030958, 55.200525799814891, -999.0 ], [ 14.986061567128139, 55.199923285722122, -999.0 ], [ 14.987172898936372, 55.199463397292092, -999.0 ], [ 14.988085779496041, 55.198103935549391, -999.0 ], [ 14.988923757828104, 55.196352008015822, -999.0 ], [ 14.988973905217547, 55.195953388808363, -999.0 ], [ 14.988556234547858, 55.194956588928378, -999.0 ], [ 14.989134113254503, 55.19409080042503, -999.0 ], [ 14.991202577758814, 55.192881436188316, -999.0 ], [ 14.993713173418639, 55.192100398953507, -999.0 ], [ 14.995041013815193, 55.191512708299747, -999.0 ], [ 14.996331125418239, 55.191196965924469, -999.0 ], [ 14.997948162871516, 55.190648992712717, -999.0 ], [ 15.002146999782903, 55.187812685772279, -999.0 ], [ 15.005192522249661, 55.187347106663616, -999.0 ], [ 15.006983450589754, 55.18576401680518, -999.0 ], [ 15.007702145186061, 55.184792126908945, -999.0 ], [ 15.010475470834573, 55.183880686047864, -999.0 ], [ 15.011603217058434, 55.183221665921337, -999.0 ], [ 15.012321344139794, 55.181934650080542, -999.0 ], [ 15.013256787946702, 55.181357155187904, -999.0 ], [ 15.013803470785254, 55.180393735417709, -999.0 ], [ 15.015981542275307, 55.180438978957049, -999.0 ], [ 15.018817867284834, 55.179011013516977, -999.0 ], [ 15.020017344309018, 55.177267929271316, -999.0 ], [ 15.02086083814539, 55.176811971819269, -999.0 ], [ 15.020894520176308, 55.176808952249878, -999.0 ], [ 15.022956701795099, 55.176627065990267, -999.0 ], [ 15.024523334294983, 55.175856122621141, -999.0 ], [ 15.030240028051148, 55.1745461214797, -999.0 ], [ 15.032021600216378, 55.173845439735764, -999.0 ], [ 15.03645053293814, 55.173175292564544, -999.0 ], [ 15.039293529251859, 55.172835926412347, -999.0 ], [ 15.041088856192857, 55.172221126755836, -999.0 ], [ 15.042000102226117, 55.171909034299134, -999.0 ], [ 15.042831035183122, 55.171165421351134, -999.0 ], [ 15.042468595647398, 55.170850311964287, -999.0 ], [ 15.042748302010219, 55.170413227419992, -999.0 ], [ 15.044238252142081, 55.169969959560326, -999.0 ], [ 15.04829859223401, 55.167913121245896, -999.0 ], [ 15.051328252726794, 55.165907480907158, -999.0 ], [ 15.052664637496139, 55.166111017108548, -999.0 ], [ 15.056407272617573, 55.16434883108343, -999.0 ], [ 15.056800634825649, 55.163212753097149, -999.0 ], [ 15.058025404668445, 55.162476398066893, -999.0 ], [ 15.059200887489398, 55.162759914250415, -999.0 ], [ 15.059651673318314, 55.16107172994748, -999.0 ], [ 15.060661967439691, 55.160580142427754, -999.0 ], [ 15.062164871405864, 55.160018943714732, -999.0 ], [ 15.065753562650986, 55.1606591395946, -999.0 ], [ 15.067017568968266, 55.160181838689311, -999.0 ], [ 15.068748911949827, 55.159366042187898, -999.0 ], [ 15.069899901158838, 55.15835412554565, -999.0 ], [ 15.071957846912493, 55.158134219766623, -999.0 ], [ 15.07184798007099, 55.157104269489906, -999.0 ], [ 15.073166269316404, 55.155849854626332, -999.0 ], [ 15.079415914915382, 55.154762875268212, -999.0 ], [ 15.081194173301226, 55.153845496921129, -999.0 ], [ 15.08545766635349, 55.153037698080567, -999.0 ], [ 15.08881849149647, 55.15208591778903, -999.0 ], [ 15.088526026887418, 55.150686960284645, -999.0 ], [ 15.097675565949988, 55.149858774369164, -999.0 ], [ 15.100744849116893, 55.148957301748624, -999.0 ], [ 15.1007473043729, 55.148956908292611, -999.0 ], [ 15.106901168115332, 55.14799059614932, -999.0 ], [ 15.108352002762299, 55.147404400808597, -999.0 ], [ 15.107142346532569, 55.146384751036287, -999.0 ], [ 15.109424898629754, 55.145891773535276, -999.0 ], [ 15.110477216555779, 55.146910314177816, -999.0 ], [ 15.111936318471523, 55.146890914555456, -999.0 ], [ 15.112685530080881, 55.146240928526446, -999.0 ], [ 15.113783745946963, 55.145816478038277, -999.0 ], [ 15.114533586866871, 55.146400008663861, -999.0 ], [ 15.115086463174231, 55.146417190922079, -999.0 ], [ 15.115116277948223, 55.144767939531121, -999.0 ], [ 15.11681473961961, 55.143953068241629, -999.0 ], [ 15.118424880405039, 55.14348477776354, -999.0 ], [ 15.120753657537314, 55.143601530541702, -999.0 ], [ 15.123126881986364, 55.143905084787527, -999.0 ], [ 15.123558274154812, 55.143541174589757, -999.0 ], [ 15.126914915965497, 55.143533580132015, -999.0 ], [ 15.126921210552648, 55.143533622711679, -999.0 ], [ 15.127879623266423, 55.143530283981278, -999.0 ], [ 15.130258280453701, 55.144481727066299, -999.0 ], [ 15.132012749861657, 55.144830390608455, -999.0 ], [ 15.132317782595976, 55.144890982918348, -999.0 ], [ 15.132811092806294, 55.144010671445869, -999.0 ], [ 15.133230428485369, 55.143982559940625, -999.0 ], [ 15.136094223989069, 55.143790794607327, -999.0 ], [ 15.136007040394839, 55.14424541107423, -999.0 ], [ 15.137594931225829, 55.144246204203448, -999.0 ], [ 15.137698820241958, 55.144204216118901, -999.0 ], [ 15.138231273192144, 55.143988934554564, -999.0 ], [ 15.139018528110698, 55.143282824381565, -999.0 ], [ 15.139394692124409, 55.142561476093704, -999.0 ], [ 15.137835767380082, 55.142136045311645, -999.0 ], [ 15.139240027145096, 55.141353723032132, -999.0 ], [ 15.139785879008555, 55.140101547601859, -999.0 ], [ 15.139731681973261, 55.138933736308545, -999.0 ], [ 15.14015325010217, 55.138813372967178, -999.0 ], [ 15.140575313180342, 55.139206225215212, -999.0 ], [ 15.142553077233645, 55.140411810784023, -999.0 ], [ 15.144196855466161, 55.140877908183, -999.0 ], [ 15.144932253898707, 55.140957750980817, -999.0 ], [ 15.14579456087181, 55.14022978543133, -999.0 ], [ 15.145955477721625, 55.139744414003111, -999.0 ], [ 15.146023426386094, 55.137841071583779, -999.0 ], [ 15.146106244342294, 55.137390537414703, -999.0 ], [ 15.146129643819835, 55.137263022932935, -999.0 ], [ 15.146245645473957, 55.136632254017044, -999.0 ], [ 15.145364244421691, 55.136637607710043, -999.0 ], [ 15.144628252210962, 55.136642079651963, -999.0 ], [ 15.144329567373674, 55.136233993680655, -999.0 ], [ 15.14441900880662, 55.136202454805272, -999.0 ], [ 15.14437130955881, 55.136097987882764, -999.0 ], [ 15.144157916612654, 55.13563038936136, -999.0 ], [ 15.144715167372652, 55.135269031851053, -999.0 ], [ 15.144858280492571, 55.135279797768746, -999.0 ], [ 15.145368294505783, 55.1350198745669, -999.0 ], [ 15.145632355304103, 55.134286167250295, -999.0 ], [ 15.145980392028346, 55.133791323928094, -999.0 ], [ 15.148771317097722, 55.133442919966861, -999.0 ], [ 15.149399749768028, 55.133645205030781, -999.0 ], [ 15.15006470680644, 55.133269361529884, -999.0 ], [ 15.14999111567904, 55.132588762082406, -999.0 ], [ 15.150593343137825, 55.132621286285371, -999.0 ], [ 15.152129098664805, 55.133101746259676, -999.0 ], [ 15.153126592227828, 55.132844099637573, -999.0 ], [ 15.153168932043682, 55.13322013542831, -999.0 ], [ 15.154175366003482, 55.13352929962587, -999.0 ], [ 15.154596575757129, 55.132796607020154, -999.0 ], [ 15.154024029569239, 55.132447446729323, -999.0 ], [ 15.154968776617794, 55.132255488016021, -999.0 ], [ 15.155315715630818, 55.131652617981338, -999.0 ], [ 15.154263502502193, 55.131453836742345, -999.0 ], [ 15.153402745811935, 55.130561014877834, -999.0 ], [ 15.153871321403562, 55.129015534482654, -999.0 ], [ 15.15190400046882, 55.128079740372357, -999.0 ], [ 15.1519241542484, 55.128006684640987, -999.0 ], [ 15.152036677748827, 55.127418223626741, -999.0 ], [ 15.152037227194651, 55.127415674576746, -999.0 ], [ 15.153644465870812, 55.127037077433123, -999.0 ], [ 15.152869633965526, 55.126292972840751, -999.0 ], [ 15.153704986637042, 55.125800417489032, -999.0 ], [ 15.15457647652314, 55.125134941599534, -999.0 ], [ 15.155794810335573, 55.123866590229078, -999.0 ], [ 15.15545335716055, 55.123181565667501, -999.0 ], [ 15.155011480005673, 55.122456610446342, -999.0 ], [ 15.154217648445574, 55.122199713137341, -999.0 ], [ 15.153341007730608, 55.122424237292982, -999.0 ], [ 15.152356499948249, 55.122357079076963, -999.0 ], [ 15.151539484462955, 55.121236925900341, -999.0 ], [ 15.150719265010373, 55.121521602304654, -999.0 ], [ 15.147407064137555, 55.120419768367647, -999.0 ], [ 15.148051026716496, 55.119297637945614, -999.0 ], [ 15.147005062503798, 55.118729311097333, -999.0 ], [ 15.146588180671609, 55.118165141842745, -999.0 ], [ 15.14679352780878, 55.117866607152486, -999.0 ], [ 15.14846700065978, 55.117817874980773, -999.0 ], [ 15.148138059619653, 55.116907093580707, -999.0 ], [ 15.147110562233715, 55.116661988146831, -999.0 ], [ 15.146828044743014, 55.116154046007672, -999.0 ], [ 15.145644550742636, 55.114998392109172, -999.0 ], [ 15.143989905689983, 55.114352806996756, -999.0 ], [ 15.143325040876878, 55.11319789495532, -999.0 ], [ 15.143404799525106, 55.113103815739862, -999.0 ], [ 15.143332819443332, 55.113044428874112, -999.0 ], [ 15.143551481505758, 55.112934315266791, -999.0 ], [ 15.144410010050557, 55.111981429414072, -999.0 ], [ 15.145730709051138, 55.111887555680852, -999.0 ], [ 15.146417824525706, 55.111555623276075, -999.0 ], [ 15.145400380352433, 55.110049400240463, -999.0 ], [ 15.144568323194999, 55.109542263680424, -999.0 ], [ 15.143885258067025, 55.108982559140337, -999.0 ], [ 15.144824367929495, 55.107938517827428, -999.0 ], [ 15.144971480946714, 55.107775026033856, -999.0 ], [ 15.145311102753167, 55.107532724667294, -999.0 ], [ 15.146102715182781, 55.107573680953735, -999.0 ], [ 15.147255141966998, 55.108019559920159, -999.0 ], [ 15.148021541818101, 55.10799875086731, -999.0 ], [ 15.14891892803038, 55.107503078102368, -999.0 ], [ 15.14923605263213, 55.10721688327596, -999.0 ], [ 15.14921097969483, 55.105831492477648, -999.0 ], [ 15.149038043498757, 55.105218957849104, -999.0 ], [ 15.14686180178072, 55.105059064165211, -999.0 ], [ 15.145729179242808, 55.104639193855569, -999.0 ], [ 15.145715416558584, 55.104549848022089, -999.0 ], [ 15.145619164109952, 55.104536713243107, -999.0 ], [ 15.145647048953393, 55.104004049303121, -999.0 ], [ 15.146318357352161, 55.103060623691974, -999.0 ], [ 15.145920932103767, 55.102621531390362, -999.0 ], [ 15.147736976310441, 55.101259951845989, -999.0 ], [ 15.147164908838153, 55.100604603075354, -999.0 ], [ 15.147555169889882, 55.099468304726273, -999.0 ], [ 15.148796849577309, 55.098252853048074, -999.0 ], [ 15.149430590337479, 55.098085678307442, -999.0 ], [ 15.149058775045305, 55.097303136075517, -999.0 ], [ 15.149548951071321, 55.096611981120681, -999.0 ], [ 15.150260563040812, 55.096440855294063, -999.0 ], [ 15.150591647839049, 55.095532650341688, -999.0 ], [ 15.15142633278799, 55.09473398244161, -999.0 ], [ 15.152246527827559, 55.09465638715055, -999.0 ], [ 15.152946310409495, 55.094918051000839, -999.0 ], [ 15.153424187402802, 55.094758756015565, -999.0 ], [ 15.153617830679607, 55.094181665056603, -999.0 ], [ 15.153211208590351, 55.093580985734484, -999.0 ], [ 15.155153783209958, 55.092942212157965, -999.0 ], [ 15.155644872199904, 55.092665181153656, -999.0 ], [ 15.156274936581861, 55.091591327755673, -999.0 ], [ 15.156303788058612, 55.091542231151585, -999.0 ], [ 15.155615801162375, 55.090847781669993, -999.0 ], [ 15.154735191552264, 55.089514787716048, -999.0 ], [ 15.153160849076199, 55.089180430258359, -999.0 ], [ 15.153712743610852, 55.08858517190825, -999.0 ], [ 15.154222876565541, 55.087820946601909, -999.0 ], [ 15.155463804496209, 55.087316791797328, -999.0 ], [ 15.156440748492939, 55.086627922012831, -999.0 ], [ 15.155995063756034, 55.085570014230889, -999.0 ], [ 15.155261524956504, 55.085292075588519, -999.0 ], [ 15.157132509446749, 55.083072127601824, -999.0 ], [ 15.15540765844352, 55.079927089632044, -999.0 ], [ 15.152972260606797, 55.078483868345828, -999.0 ], [ 15.152479465111441, 55.076915096332804, -999.0 ], [ 15.151033207807981, 55.075574752564158, -999.0 ], [ 15.150809631943906, 55.075243924151209, -999.0 ], [ 15.149925171056037, 55.0749015760425, -999.0 ], [ 15.1472961551483, 55.074612421540415, -999.0 ], [ 15.147291204181769, 55.074611862012972, -999.0 ], [ 15.146197003961307, 55.074027995282563, -999.0 ], [ 15.13983125270309, 55.070082307821345, -999.0 ], [ 15.13773088462591, 55.068360731581905, -999.0 ], [ 15.137177506083841, 55.066596888934313, -999.0 ], [ 15.137374372956648, 55.063588526114124, -999.0 ], [ 15.135103337351662, 55.06361336145001, -999.0 ], [ 15.135141073725974, 55.063231745820552, -999.0 ], [ 15.135161760744474, 55.063023152753978, -999.0 ], [ 15.135330895215002, 55.061314785508017, -999.0 ], [ 15.135204988843727, 55.061312149291034, -999.0 ], [ 15.135305331824561, 55.060709915634327, -999.0 ], [ 15.135666418940881, 55.058541448460396, -999.0 ], [ 15.135800869905122, 55.057734353966048, -999.0 ], [ 15.137666398516066, 55.057829062238611, -999.0 ], [ 15.137379551969618, 55.059536368121691, -999.0 ], [ 15.136494504304988, 55.06266058370737, -999.0 ], [ 15.13785893577467, 55.062555537338532, -999.0 ], [ 15.13921634377866, 55.06393652786101, -999.0 ], [ 15.139705610930092, 55.060994396324105, -999.0 ], [ 15.139689833869102, 55.060943780731826, -999.0 ], [ 15.138409540120746, 55.056846014527409, -999.0 ], [ 15.137462391670866, 55.056704853855464, -999.0 ], [ 15.137136898879762, 55.0567303270305, -999.0 ], [ 15.131638193251236, 55.055680115143439, -999.0 ], [ 15.128750301826942, 55.055128422757534, -999.0 ], [ 15.128642273873925, 55.055631000746864, -999.0 ], [ 15.128521467007632, 55.056193471596096, -999.0 ], [ 15.127919036242895, 55.056151874301371, -999.0 ], [ 15.12691678091023, 55.055446154855971, -999.0 ], [ 15.126745568090387, 55.055454802964732, -999.0 ], [ 15.126302171476873, 55.055017986689379, -999.0 ], [ 15.125247803824175, 55.054278870379818, -999.0 ], [ 15.124029723938472, 55.052368470225545, -999.0 ], [ 15.12472707944899, 55.050982638464973, -999.0 ], [ 15.123526996353879, 55.050827133102395, -999.0 ], [ 15.123321560922268, 55.050331652694915, -999.0 ], [ 15.123153963501046, 55.049927544627543, -999.0 ], [ 15.123478520432032, 55.048974729858251, -999.0 ], [ 15.124588868532326, 55.048135306532089, -999.0 ], [ 15.124546084508909, 55.047651243697402, -999.0 ], [ 15.123937356113919, 55.046533504139056, -999.0 ], [ 15.12393518416639, 55.046529561947352, -999.0 ], [ 15.119909179060974, 55.043995529251752, -999.0 ], [ 15.114575835319002, 55.041419247601439, -999.0 ], [ 15.112625066462689, 55.040761244572629, -999.0 ], [ 15.109801113714546, 55.039210784433401, -999.0 ], [ 15.10987126353171, 55.039054181464621, -999.0 ], [ 15.109705558297332, 55.037045623339871, -999.0 ], [ 15.11065400445335, 55.035043957215173, -999.0 ], [ 15.112747220004904, 55.03232728408593, -999.0 ], [ 15.112755780949012, 55.032320729775257, -999.0 ], [ 15.117393521426621, 55.028779474201471, -999.0 ], [ 15.120479586783185, 55.027435200972072, -999.0 ], [ 15.121238014388236, 55.026757624032584, -999.0 ], [ 15.119420590258638, 55.025327666355949, -999.0 ], [ 15.118119158309312, 55.024709030039439, -999.0 ], [ 15.117989386645272, 55.023860189314632, -999.0 ], [ 15.117070417104165, 55.021276821673098, -999.0 ], [ 15.116752797248315, 55.020383973558751, -999.0 ], [ 15.118399184082691, 55.018031870674491, -999.0 ], [ 15.120378154386978, 55.016626390219805, -999.0 ], [ 15.120437380159082, 55.015578924206586, -999.0 ], [ 15.120223230543335, 55.014383185247638, -999.0 ], [ 15.109417487113586, 55.009903946477721, -999.0 ], [ 15.107045173352503, 55.008423822367405, -999.0 ], [ 15.106266212222485, 55.007937766983204, -999.0 ], [ 15.092428823524845, 54.996892832262319, -999.0 ], [ 15.089340676547721, 54.993680545800871, -999.0 ], [ 15.084530953465361, 54.989852327663215, -999.0 ], [ 15.082524042978667, 54.988494432951313, -999.0 ], [ 15.071937825926769, 54.987350534827577, -999.0 ], [ 15.044778815433865, 54.993939215438544, -999.0 ], [ 15.034158564213783, 54.995377726988742, -999.0 ], [ 15.021518793702127, 54.994637726227737, -999.0 ], [ 15.017197130298737, 54.995788691147112, -999.0 ], [ 15.016659769720048, 54.995860381118185, -999.0 ], [ 15.012665863905728, 54.99679683248506, -999.0 ], [ 15.007253872043375, 54.997677379590485, -999.0 ], [ 15.001764193015308, 54.998354445803535, -999.0 ], [ 14.99757552178246, 54.998516730230712, -999.0 ], [ 14.992660077195648, 54.999579119924157, -999.0 ], [ 14.988878118052423, 54.99973900008132, -999.0 ], [ 14.984450752777001, 55.000191718549409, -999.0 ], [ 14.981227776004273, 55.001683260536616, -999.0 ], [ 14.977226628365861, 55.002789924004794, -999.0 ], [ 14.974346559967033, 55.003328025224384, -999.0 ], [ 14.973958280732152, 55.003455197104081, -999.0 ], [ 14.973645966430361, 55.003461582467949, -999.0 ], [ 14.971893794763774, 55.00379098954302, -999.0 ], [ 14.968921642934122, 55.004027383686427, -999.0 ], [ 14.963533588679924, 55.003923395968251, -999.0 ], [ 14.958698633323094, 55.005115452808127, -999.0 ], [ 14.957325054056417, 55.005885198058969, -999.0 ], [ 14.955114079921007, 55.006290916631308, -999.0 ], [ 14.947681234163172, 55.010139959683407, -999.0 ], [ 14.938323189913163, 55.014010780381007, -999.0 ], [ 14.935639679482069, 55.014826396972332, -999.0 ], [ 14.934945709802829, 55.015112448907743, -999.0 ], [ 14.934485692713718, 55.015179977694146, -999.0 ], [ 14.933137418085281, 55.015597071212945, -999.0 ], [ 14.929752052577761, 55.015906708743856, -999.0 ], [ 14.925486473642536, 55.01450368178002, -999.0 ], [ 14.924571074185467, 55.014458379086236, -999.0 ], [ 14.924240117408209, 55.014722670214127, -999.0 ], [ 14.924234788441172, 55.014726891865429, -999.0 ], [ 14.922268626057949, 55.016263405177561, -999.0 ], [ 14.917417543169432, 55.018741949741305, -999.0 ], [ 14.916914899913843, 55.019369671796653, -999.0 ], [ 14.913197119393322, 55.021144521783441, -999.0 ], [ 14.911505098671698, 55.021677155215173, -999.0 ], [ 14.911186582729991, 55.021854732778834, -999.0 ], [ 14.910922097296149, 55.021867623820143, -999.0 ], [ 14.90869234648423, 55.022579472478029, -999.0 ], [ 14.905575394920618, 55.022695278431044, -999.0 ], [ 14.904467576191106, 55.023046312079153, -999.0 ], [ 14.903826528161822, 55.022312276273425, -999.0 ], [ 14.903081279868371, 55.022996758253477, -999.0 ], [ 14.902236867696557, 55.023433981033889, -999.0 ], [ 14.901782770288404, 55.023330039311375, -999.0 ], [ 14.900878735908718, 55.023788159077959, -999.0 ], [ 14.897333263412836, 55.02599524807016, -999.0 ], [ 14.894607362499293, 55.027172086123976, -999.0 ], [ 14.891855043966585, 55.028809284544252, -999.0 ], [ 14.885563072112312, 55.031743566269462, -999.0 ], [ 14.879646383024649, 55.033290893155318, -999.0 ], [ 14.876729853568031, 55.033603279658095, -999.0 ], [ 14.872145196985885, 55.035472799671062, -999.0 ], [ 14.868551801138572, 55.036087827396159, -999.0 ], [ 14.867342017257013, 55.036389420350531, -999.0 ], [ 14.865710143058891, 55.037233565019434, -999.0 ], [ 14.86277592912475, 55.038176644415309, -999.0 ], [ 14.855210829244575, 55.039505297251182, -999.0 ], [ 14.852500409336724, 55.040266266479229, -999.0 ], [ 14.850072108616267, 55.040491419836719, -999.0 ], [ 14.843890822411151, 55.042283755143977, -999.0 ], [ 14.843872336981359, 55.042285995959872, -999.0 ], [ 14.839855109514609, 55.042775169183471, -999.0 ], [ 14.83777924592505, 55.042731034975553, -999.0 ], [ 14.83720583444045, 55.042776630418523, -999.0 ], [ 14.837039717908615, 55.042712602912708, -999.0 ], [ 14.836679042405022, 55.042711950434381, -999.0 ], [ 14.833584280479172, 55.042023568649491, -999.0 ], [ 14.832316042532089, 55.040959236519605, -999.0 ], [ 14.82535566889759, 55.043328198900348, -999.0 ], [ 14.81799590728815, 55.046056812898158, -999.0 ], [ 14.817992339541718, 55.046058154290179, -999.0 ], [ 14.81488886066419, 55.046819094466848, -999.0 ], [ 14.809481012198395, 55.049850869869672, -999.0 ], [ 14.807190716821671, 55.05081572686521, -999.0 ], [ 14.80439680584843, 55.051336509814746, -999.0 ], [ 14.800526896971935, 55.052871912772126, -999.0 ], [ 14.795713362959159, 55.053633052462104, -999.0 ], [ 14.794789288322713, 55.053857230477846, -999.0 ], [ 14.794440191517808, 55.053828889857627, -999.0 ], [ 14.793812035277261, 55.053930902057296, -999.0 ], [ 14.787211563098682, 55.053723744677818, -999.0 ], [ 14.778066852778714, 55.052512133131358, -999.0 ], [ 14.77684702403573, 55.052426177239909, -999.0 ], [ 14.772752691635214, 55.053935338078517, -999.0 ], [ 14.765539633074431, 55.057744068264469, -999.0 ], [ 14.762061973434509, 55.058206310029639, -999.0 ], [ 14.757501757098208, 55.06084429762371, -999.0 ], [ 14.756614746638402, 55.061219451015624, -999.0 ], [ 14.755592932506222, 55.061420949894995, -999.0 ], [ 14.753249018303295, 55.062135223428307, -999.0 ], [ 14.751275755509925, 55.062264758531164, -999.0 ], [ 14.751110108471137, 55.062857739117383, -999.0 ], [ 14.750368341949395, 55.06326196943342, -999.0 ], [ 14.74525085110889, 55.063450319277472, -999.0 ], [ 14.744930122615715, 55.06351051146148, -999.0 ], [ 14.743358084708872, 55.064359083888377, -999.0 ], [ 14.741015232109866, 55.066612395383757, -999.0 ], [ 14.738467239261418, 55.067388322892604, -999.0 ], [ 14.736220946128403, 55.068072339590834, -999.0 ], [ 14.735605211807789, 55.06979380039779, -999.0 ], [ 14.73406019755288, 55.071271098542695, -999.0 ], [ 14.732164207803875, 55.072914110780459, -999.0 ], [ 14.732148589065943, 55.072927721087026, -999.0 ], [ 14.727544929844772, 55.077366918464357, -999.0 ], [ 14.72516926570747, 55.078964294297016, -999.0 ], [ 14.724671393115798, 55.079212820728465, -999.0 ], [ 14.724052887092427, 55.079386016423719, -999.0 ], [ 14.721658857258673, 55.080309044126004, -999.0 ], [ 14.718294751777874, 55.081142692418943, -999.0 ], [ 14.714083383788012, 55.081539030131538, -999.0 ], [ 14.71046572343853, 55.081259164732757, -999.0 ], [ 14.708538606100532, 55.082267980209089, -999.0 ], [ 14.705149733522662, 55.083480490956369, -999.0 ], [ 14.70455197981922, 55.084129701249338, -999.0 ], [ 14.703742500902695, 55.085824056978403, -999.0 ], [ 14.702687164562878, 55.08711587355122, -999.0 ], [ 14.702178564358841, 55.087400812431632, -999.0 ], [ 14.700744430724177, 55.088458351038597, -999.0 ], [ 14.699710246056449, 55.088029813830559, -999.0 ], [ 14.694197618798345, 55.089872780219281, -999.0 ], [ 14.691469143400505, 55.090990896790629, -999.0 ], [ 14.68728682705955, 55.094315670047727, -999.0 ], [ 14.686665429877559, 55.09480961961885, -999.0 ], [ 14.686379337128368, 55.095037077377341, -999.0 ], [ 14.691389764066145, 55.093848152014459, -999.0 ], [ 14.693150873709358, 55.093099465085636, -999.0 ], [ 14.695596273755358, 55.09410855330858, -999.0 ], [ 14.695619114126153, 55.094117923897471, -999.0 ], [ 14.697130294239118, 55.094799661573305, -999.0 ], [ 14.698420736269107, 55.095381740083788, -999.0 ], [ 14.697887646512511, 55.09703606851042, -999.0 ], [ 14.697223383768756, 55.097661350535923, -999.0 ], [ 14.696420604626883, 55.098086087184754, -999.0 ], [ 14.696046772398159, 55.098355221708523, -999.0 ], [ 14.694000505123352, 55.099828902615954, -999.0 ], [ 14.692436010212237, 55.099807015382474, -999.0 ], [ 14.691782589119367, 55.099797857295492, -999.0 ], [ 14.688480406125095, 55.09963141461531, -999.0 ], [ 14.687987709942552, 55.099606605302348, -999.0 ], [ 14.687175023727608, 55.097097199444605, -999.0 ], [ 14.684998612883374, 55.096253941133718, -999.0 ], [ 14.682546309084863, 55.09733190475675, -999.0 ], [ 14.684882569055524, 55.102164456347275, -999.0 ], [ 14.686776381208402, 55.103336016783352, -999.0 ], [ 14.687283745779592, 55.103591307854998, -999.0 ], [ 14.690855041578398, 55.104414184988215, -999.0 ], [ 14.692198761875135, 55.103928128366952, -999.0 ], [ 14.69263270761116, 55.104016167337811, -999.0 ], [ 14.693694461449555, 55.10423158063346, -999.0 ], [ 14.693862122191764, 55.104265577497962, -999.0 ], [ 14.693928737123152, 55.104279107233417, -999.0 ], [ 14.694143254285844, 55.10424204371008, -999.0 ], [ 14.69423653996169, 55.104345689957412, -999.0 ], [ 14.69587836201555, 55.104628761638367, -999.0 ], [ 14.696339294986547, 55.104778173816875, -999.0 ], [ 14.699418690119872, 55.106992140822328, -999.0 ], [ 14.700775324220404, 55.110664184729089, -999.0 ], [ 14.700134529587402, 55.112224556910633, -999.0 ], [ 14.701449607948391, 55.112855961316264, -999.0 ], [ 14.70226394940344, 55.114158989309203, -999.0 ], [ 14.702097828833443, 55.115634072886941, -999.0 ], [ 14.700884290280806, 55.118022490497687, -999.0 ], [ 14.700867646632982, 55.118055497917766, -999.0 ], [ 14.700749728166384, 55.118289856717347, -999.0 ], [ 14.699546158172458, 55.119759612709885, -999.0 ], [ 14.698797157799639, 55.121883157413656, -999.0 ], [ 14.699186131319294, 55.122296990067674, -999.0 ], [ 14.703064389835198, 55.124923503719529, -999.0 ], [ 14.705848790145875, 55.127916353368413, -999.0 ], [ 14.706761358217053, 55.129682840127657, -999.0 ], [ 14.706973989567031, 55.130510015407559, -999.0 ], [ 14.707655782787139, 55.134285733130625, -999.0 ], [ 14.707448735588377, 55.137230038509671, -999.0 ], [ 14.706605329164473, 55.142838242073147, -999.0 ], [ 14.706603361926577, 55.142850846929946, -999.0 ], [ 14.70572366988303, 55.146366842648554, -999.0 ], [ 14.70412817176558, 55.14828711598976, -999.0 ], [ 14.704213172263074, 55.150857627304156, -999.0 ], [ 14.705520501233837, 55.153526482405624, -999.0 ], [ 14.705523583562965, 55.153532638911514, -999.0 ], [ 14.706023826476537, 55.154391322442969, -999.0 ], [ 14.705276155084844, 55.155866710462178, -999.0 ], [ 14.703873881783702, 55.16067646293925, -999.0 ], [ 14.705473175767542, 55.162950847800246, -999.0 ], [ 14.706293463205313, 55.165054754617969, -999.0 ], [ 14.705690267695454, 55.169295899674452, -999.0 ], [ 14.705654282648119, 55.170800883225901, -999.0 ], [ 14.704861888327169, 55.174051706421054, -999.0 ], [ 14.703764737965118, 55.175066384413121, -999.0 ], [ 14.703238954062773, 55.17611725554891, -999.0 ], [ 14.702560499626703, 55.177859418915105, -999.0 ], [ 14.702372030353548, 55.181045876133794, -999.0 ], [ 14.701899419866072, 55.18159014674422, -999.0 ], [ 14.700397786796728, 55.181759592974245, -999.0 ], [ 14.700418488528264, 55.183441946183905, -999.0 ], [ 14.70168939299394, 55.18616388019062, -999.0 ], [ 14.702753358337336, 55.186122975041741, -999.0 ], [ 14.702549153092296, 55.185466425245977, -999.0 ], [ 14.702874977709484, 55.18422690302021, -999.0 ], [ 14.703524459793623, 55.185465678765517, -999.0 ], [ 14.703786814026792, 55.185759428959088, -999.0 ], [ 14.703695611881242, 55.185781711603042, -999.0 ], [ 14.704386657453766, 55.187090547909577, -999.0 ], [ 14.704250140048508, 55.187565044944385, -999.0 ], [ 14.703978680616215, 55.187542675340616, -999.0 ], [ 14.703206031483585, 55.18747909632372, -999.0 ], [ 14.70313566056236, 55.187473305907972, -999.0 ], [ 14.703114655608674, 55.187546305295967, -999.0 ], [ 14.702553825164641, 55.18736557413024, -999.0 ], [ 14.702755206056381, 55.18756316762947, -999.0 ], [ 14.702966061654916, 55.187607286677299, -999.0 ], [ 14.703028072254483, 55.187820419559905, -999.0 ], [ 14.703719349401096, 55.188472121329291, -999.0 ], [ 14.703406309350031, 55.189251956632987, -999.0 ], [ 14.703660501374216, 55.189708122114823, -999.0 ], [ 14.703704152938878, 55.191110347228658, -999.0 ], [ 14.702013903485591, 55.193260035124112, -999.0 ], [ 14.702021644855614, 55.194961001135148, -999.0 ], [ 14.701266757411256, 55.196391671796846, -999.0 ], [ 14.703237928856847, 55.200145579696176, -999.0 ] ] ] } },
{ "type": "Feature", "properties": { "lau_1": "155", "label_en": "Dragør", "label_dk": "Dragør", "iso_3166_2": "DK-84" }, "geometry": { "type": "Polygon", "coordinates": [ [ [ 12.669871579898825, 55.604429481448157, -999.0 ], [ 12.669871954489713, 55.604428391160091, -999.0 ], [ 12.671543459519162, 55.601410868157885, -999.0 ], [ 12.673129921823337, 55.595958975243271, -999.0 ], [ 12.674460355493677, 55.594902943710785, -999.0 ], [ 12.674646288891044, 55.59485348287356, -999.0 ], [ 12.675870344088004, 55.594527918585818, -999.0 ], [ 12.674631714621462, 55.594193710531883, -999.0 ], [ 12.674550747233061, 55.594171860902058, -999.0 ], [ 12.674599824660364, 55.594017520418298, -999.0 ], [ 12.674694836618704, 55.594014669570491, -999.0 ], [ 12.674776130331605, 55.59393309863556, -999.0 ], [ 12.674898070277255, 55.593810742139262, -999.0 ], [ 12.675882372245189, 55.593808178647869, -999.0 ], [ 12.675973800568693, 55.593427760397475, -999.0 ], [ 12.677028149459774, 55.593495022893826, -999.0 ], [ 12.678533319322348, 55.593458813344839, -999.0 ], [ 12.679330238470207, 55.593659679764798, -999.0 ], [ 12.680476822877511, 55.593355459194569, -999.0 ], [ 12.679744666315912, 55.592828933268308, -999.0 ], [ 12.680168712593458, 55.5926093692281, -999.0 ], [ 12.682031175538505, 55.59231958748537, -999.0 ], [ 12.681730610398731, 55.591654204519678, -999.0 ], [ 12.681273233443028, 55.591856791717483, -999.0 ], [ 12.68081992030559, 55.591933363392357, -999.0 ], [ 12.67876144716228, 55.591995216603237, -999.0 ], [ 12.676875259906245, 55.590505196722333, -999.0 ], [ 12.679098088986629, 55.589656110500371, -999.0 ], [ 12.679463652797345, 55.589412587504412, -999.0 ], [ 12.67979081401241, 55.589194766169093, -999.0 ], [ 12.680144258528754, 55.588959248584999, -999.0 ], [ 12.680119009110749, 55.588872782495798, -999.0 ], [ 12.680074074876352, 55.588718566817597, -999.0 ], [ 12.6793563606515, 55.588504536222153, -999.0 ], [ 12.678293681566466, 55.588187561496781, -999.0 ], [ 12.676744571740558, 55.588261059608328, -999.0 ], [ 12.675346855170336, 55.587916351275631, -999.0 ], [ 12.674357354000925, 55.587352557916134, -999.0 ], [ 12.674264874431984, 55.587382309486024, -999.0 ], [ 12.673965628371965, 55.587238419914435, -999.0 ], [ 12.67287298114223, 55.586929492190542, -999.0 ], [ 12.669001760460045, 55.584069117836698, -999.0 ], [ 12.664097469391576, 55.582210705141577, -999.0 ], [ 12.657017481173627, 55.580848726942108, -999.0 ], [ 12.652759093747079, 55.580804983143437, -999.0 ], [ 12.651348504272987, 55.57997481527098, -999.0 ], [ 12.644526900127534, 55.577795129347209, -999.0 ], [ 12.640503876382033, 55.577375281391063, -999.0 ], [ 12.640496011611974, 55.577376054756137, -999.0 ], [ 12.637624551526843, 55.577649690802168, -999.0 ], [ 12.633109393734781, 55.576884536841426, -999.0 ], [ 12.631973918492294, 55.57679233406266, -999.0 ], [ 12.631491260824577, 55.575691630759003, -999.0 ], [ 12.630259373357653, 55.575242588634545, -999.0 ], [ 12.62924459472818, 55.575425537315709, -999.0 ], [ 12.628295267505051, 55.57477027443322, -999.0 ], [ 12.626132418209806, 55.572487416531828, -999.0 ], [ 12.624581893102189, 55.571679081350602, -999.0 ], [ 12.620725418732935, 55.56806148435043, -999.0 ], [ 12.619441875460311, 55.567047366775711, -999.0 ], [ 12.617950877820014, 55.56619223244931, -999.0 ], [ 12.614229788347034, 55.565070232595261, -999.0 ], [ 12.612488914430948, 55.564429227923199, -999.0 ], [ 12.610342429323676, 55.563863105967698, -999.0 ], [ 12.610828393938931, 55.563453124295975, -999.0 ], [ 12.610254677073529, 55.562561849996399, -999.0 ], [ 12.608683817111961, 55.562734053733749, -999.0 ], [ 12.608117824263083, 55.56244500789758, -999.0 ], [ 12.606305448957942, 55.561886953885228, -999.0 ], [ 12.605901010123745, 55.561629107012706, -999.0 ], [ 12.605906934235804, 55.560828643396718, -999.0 ], [ 12.603755184197839, 55.560721157521506, -999.0 ], [ 12.602929491292407, 55.561060181615218, -999.0 ], [ 12.602338490278621, 55.560843782037573, -999.0 ], [ 12.601875723999324, 55.560641590749995, -999.0 ], [ 12.600039632659977, 55.558609457333176, -999.0 ], [ 12.59693742163965, 55.556434669276925, -999.0 ], [ 12.592763889435659, 55.55485775024701, -999.0 ], [ 12.591823077916892, 55.554804432093334, -999.0 ], [ 12.59131326742188, 55.554954269742232, -999.0 ], [ 12.589575958671464, 55.555733576080804, -999.0 ], [ 12.585765107929722, 55.55656462128227, -999.0 ], [ 12.583802314287121, 55.557134640850521, -999.0 ], [ 12.582774096551541, 55.557515424119842, -999.0 ], [ 12.573663184972602, 55.557637867021192, -999.0 ], [ 12.569706843625355, 55.558094991390817, -999.0 ], [ 12.563754087843918, 55.560156721562194, -999.0 ], [ 12.559341836430768, 55.564169563032209, -999.0 ], [ 12.558996563462895, 55.565789140477349, -999.0 ], [ 12.559310299889976, 55.567326616781308, -999.0 ], [ 12.558099003563143, 55.572352293338014, -999.0 ], [ 12.556943483345815, 55.574139273191676, -999.0 ], [ 12.556908572584483, 55.574455001258691, -999.0 ], [ 12.563713436802553, 55.575812727124351, -999.0 ], [ 12.58634904881138, 55.579665784010018, -999.0 ], [ 12.611388590714775, 55.576115354663195, -999.0 ], [ 12.622347715880519, 55.60339721107497, -999.0 ], [ 12.632428966871187, 55.602145500507753, -999.0 ], [ 12.632443638387667, 55.608655323078835, -999.0 ], [ 12.670291657522231, 55.606583026971755, -999.0 ], [ 12.669571437267114, 55.60529165420396, -999.0 ], [ 12.669871579898825, 55.604429481448157, -999.0 ] ] ] } },
{ "type": "Feature", "properties": { "lau_1": "217", "label_en": "Helsingør", "label_dk": "Helsingør", "iso_3166_2": "DK-84" }, "geometry": { "type": "Polygon", "coordinates": [ [ [ 12.404476695246734, 56.057948680764234, -999.0 ], [ 12.403162352735396, 56.063999833994579, -999.0 ], [ 12.407891108948517, 56.066045008384485, -999.0 ], [ 12.41180529074281, 56.064507216774992, -999.0 ], [ 12.409631611175618, 56.077010674248086, -999.0 ], [ 12.415635463623261, 56.081268031888357, -999.0 ], [ 12.417024259347615, 56.096579014876653, -999.0 ], [ 12.417039487161924, 56.096567534311838, -999.0 ], [ 12.421026889863258, 56.0950993947082, -999.0 ], [ 12.42431648577235, 56.094288847282584, -999.0 ], [ 12.434948430536929, 56.093211024454583, -999.0 ], [ 12.444643564798954, 56.0929945991343, -999.0 ], [ 12.456450322542715, 56.094804163388673, -999.0 ], [ 12.457962433153742, 56.094626916900346, -999.0 ], [ 12.456919489773224, 56.094296511051887, -999.0 ], [ 12.456726750655585, 56.093402813578521, -999.0 ], [ 12.457270618327616, 56.093369588632832, -999.0 ], [ 12.45729390163708, 56.093449854952347, -999.0 ], [ 12.457860249331469, 56.093487925261392, -999.0 ], [ 12.457967919788462, 56.094150240395656, -999.0 ], [ 12.458811098252902, 56.094405320299686, -999.0 ], [ 12.460166534711487, 56.093558114417725, -999.0 ], [ 12.461256618567329, 56.093338718702412, -999.0 ], [ 12.462108525603258, 56.093332791900856, -999.0 ], [ 12.465212775219985, 56.092975890357685, -999.0 ], [ 12.476072228322586, 56.093722280244506, -999.0 ], [ 12.48221643223197, 56.093189328299069, -999.0 ], [ 12.487313514090934, 56.091750603095278, -999.0 ], [ 12.494407385804323, 56.091585790605869, -999.0 ], [ 12.498230839241113, 56.091360521189713, -999.0 ], [ 12.500348686374503, 56.090949779780615, -999.0 ], [ 12.506614660912273, 56.088757766802246, -999.0 ], [ 12.510645143676866, 56.087955729057619, -999.0 ], [ 12.510674208569551, 56.087949956561332, -999.0 ], [ 12.519455124994519, 56.085838506768745, -999.0 ], [ 12.528636150601935, 56.08301364950033, -999.0 ], [ 12.539794034947999, 56.079843633748069, -999.0 ], [ 12.546594232941205, 56.076510267917463, -999.0 ], [ 12.547288219538762, 56.076364426720538, -999.0 ], [ 12.547550449858505, 56.076069159872354, -999.0 ], [ 12.549338082623056, 56.074704980292751, -999.0 ], [ 12.554921210712763, 56.071963619820075, -999.0 ], [ 12.559669797207196, 56.06976759067738, -999.0 ], [ 12.56066673566969, 56.068551940140729, -999.0 ], [ 12.563549496592522, 56.066697346153774, -999.0 ], [ 12.56692641434452, 56.0648014095975, -999.0 ], [ 12.5692762048409, 56.063003001981443, -999.0 ], [ 12.569282961605024, 56.062997861072638, -999.0 ], [ 12.570753377890485, 56.061867316876736, -999.0 ], [ 12.575023982199546, 56.059738452308125, -999.0 ], [ 12.578885136706074, 56.057531405047847, -999.0 ], [ 12.588529519032937, 56.053411651545396, -999.0 ], [ 12.595003921060641, 56.05081326220246, -999.0 ], [ 12.596743004427115, 56.049647575747265, -999.0 ], [ 12.599735613346153, 56.047797866946816, -999.0 ], [ 12.604708095019076, 56.045476577687488, -999.0 ], [ 12.606185510195715, 56.043922772100515, -999.0 ], [ 12.612935290998228, 56.043266513753856, -999.0 ], [ 12.610502560010715, 56.042159906801878, -999.0 ], [ 12.611334907131386, 56.041784846850966, -999.0 ], [ 12.613795241578627, 56.041469953199844, -999.0 ], [ 12.61440229093607, 56.041434167806074, -999.0 ], [ 12.614682817516158, 56.0416133254326, -999.0 ], [ 12.615734903939336, 56.042285247820068, -999.0 ], [ 12.616317291595424, 56.042843623736573, -999.0 ], [ 12.616840307721688, 56.04208197088488, -999.0 ], [ 12.61729592743014, 56.041115486235768, -999.0 ], [ 12.617419879129653, 56.041066889821813, -999.0 ], [ 12.617567409608966, 56.041098525794986, -999.0 ], [ 12.620620293613143, 56.040936940054607, -999.0 ], [ 12.623236571371557, 56.040059791730052, -999.0 ], [ 12.624189378174004, 56.039258492660622, -999.0 ], [ 12.624055494620874, 56.038345281226228, -999.0 ], [ 12.619413940098337, 56.034921003627545, -999.0 ], [ 12.619354606181254, 56.036001743075744, -999.0 ], [ 12.619422567894492, 56.037069751970655, -999.0 ], [ 12.619243650153578, 56.037731396329569, -999.0 ], [ 12.618300351676613, 56.037606238806525, -999.0 ], [ 12.617964387038993, 56.036420215619479, -999.0 ], [ 12.616052040320739, 56.037758731491309, -999.0 ], [ 12.615778750438063, 56.037949999672172, -999.0 ], [ 12.615640400099917, 56.038187841114883, -999.0 ], [ 12.615522399480458, 56.038128361795088, -999.0 ], [ 12.615447347342954, 56.038184513438715, -999.0 ], [ 12.614700673387054, 56.037585995372162, -999.0 ], [ 12.616415966941371, 56.036007093348417, -999.0 ], [ 12.616051401081741, 56.034857871782698, -999.0 ], [ 12.615838353616287, 56.034297650841573, -999.0 ], [ 12.615455012495325, 56.033805367516209, -999.0 ], [ 12.615686155461191, 56.033357995833541, -999.0 ], [ 12.615617125024464, 56.033135230623436, -999.0 ], [ 12.615823650112384, 56.033111187424275, -999.0 ], [ 12.61609695549831, 56.032599636198583, -999.0 ], [ 12.615797901789778, 56.032149838703106, -999.0 ], [ 12.61428841879272, 56.031807483041725, -999.0 ], [ 12.612247446988228, 56.030761361610637, -999.0 ], [ 12.609235222683676, 56.028943407825707, -999.0 ], [ 12.607932945003155, 56.027722722007738, -999.0 ], [ 12.60508423039057, 56.022833750898315, -999.0 ], [ 12.601969155801308, 56.019040493165008, -999.0 ], [ 12.601959913906985, 56.01902745581237, -999.0 ], [ 12.599382008999701, 56.015393590127708, -999.0 ], [ 12.596976021884485, 56.012943073868989, -999.0 ], [ 12.596970357099721, 56.01293739474643, -999.0 ], [ 12.595187464468594, 56.011370956504649, -999.0 ], [ 12.589562439179103, 56.009044330816998, -999.0 ], [ 12.58883191486003, 56.008436207328664, -999.0 ], [ 12.585846678982183, 56.007570039322665, -999.0 ], [ 12.579880849006695, 56.005189967880426, -999.0 ], [ 12.576075767603077, 56.003088582879172, -999.0 ], [ 12.564121373914903, 55.995432657848163, -999.0 ], [ 12.561780218421161, 55.993180586659022, -999.0 ], [ 12.562517260596088, 55.992125250487568, -999.0 ], [ 12.560163246474875, 55.990601832690288, -999.0 ], [ 12.554335502573092, 55.985312356950004, -999.0 ], [ 12.55379735246186, 55.984167992105974, -999.0 ], [ 12.551630113534845, 55.980301258754345, -999.0 ], [ 12.548632184443887, 55.976988930046822, -999.0 ], [ 12.548625748902976, 55.976983450914844, -999.0 ], [ 12.544534764088116, 55.979525637911195, -999.0 ], [ 12.534440719571995, 55.979977625978343, -999.0 ], [ 12.52222328357454, 55.975778077203948, -999.0 ], [ 12.519293732318079, 55.977066679588255, -999.0 ], [ 12.523249284777792, 55.982294417041878, -999.0 ], [ 12.520226427577024, 55.98626511647349, -999.0 ], [ 12.511616218645102, 55.987005453752701, -999.0 ], [ 12.508134683657611, 55.984164530118356, -999.0 ], [ 12.502245787563684, 55.984134337728584, -999.0 ], [ 12.490603696770645, 55.988600832191942, -999.0 ], [ 12.479914389931661, 55.982285823234427, -999.0 ], [ 12.470285048119498, 55.992942315154401, -999.0 ], [ 12.474367590318796, 56.005891349145877, -999.0 ], [ 12.442478395926246, 56.004233137781519, -999.0 ], [ 12.429370523061094, 55.998646702532739, -999.0 ], [ 12.410665182996048, 56.011043027648547, -999.0 ], [ 12.389621735083679, 56.014303036305094, -999.0 ], [ 12.388608918489624, 56.018862269583863, -999.0 ], [ 12.399853450617018, 56.026617322292516, -999.0 ], [ 12.394877128648966, 56.032292865026832, -999.0 ], [ 12.404476695246734, 56.057948680764234, -999.0 ] ] ] } },
{ "type": "Feature", "properties": { "lau_1": "101", "label_en": "Copenhagen", "label_dk": "København", "iso_3166_2": "DK-84" }, "geometry": { "type": "Polygon", "coordinates": [ [ [ 12.666783455628901, 55.72122182098083, -999.0 ], [ 12.667061157140379, 55.721167660905266, -999.0 ], [ 12.667922846139364, 55.720503462430507, -999.0 ], [ 12.667540224499971, 55.719651660300535, -999.0 ], [ 12.666542562884098, 55.719375750517123, -999.0 ], [ 12.663704479083991, 55.720539590039593, -999.0 ], [ 12.66388780753369, 55.720965734974726, -999.0 ], [ 12.664255813120052, 55.721152569774773, -999.0 ], [ 12.665480969253798, 55.721475654299802, -999.0 ], [ 12.666783455628901, 55.72122182098083, -999.0 ] ] ] } },
{ "type": "Feature", "properties": { "lau_1": "101", "label_en": "Copenhagen", "label_dk": "København", "iso_3166_2": "DK-84" }, "geometry": { "type": "Polygon", "coordinates": [ [ [ 12.509412958185292, 55.613086815215304, -999.0 ], [ 12.505779609557976, 55.613316720988379, -999.0 ], [ 12.505497936233343, 55.613720411648984, -999.0 ], [ 12.50595053039517, 55.614696538090037, -999.0 ], [ 12.506316162217438, 55.615054730691661, -999.0 ], [ 12.511189710902141, 55.614834233136733, -999.0 ], [ 12.509412958185292, 55.613086815215304, -999.0 ] ] ] } },
{ "type": "Feature", "properties": { "lau_1": "101", "label_en": "Copenhagen", "label_dk": "København", "iso_3166_2": "DK-84" }, "geometry": { "type": "Polygon", "coordinates": [ [ [ 12.729095505845207, 55.703264324001452, -999.0 ], [ 12.728906673748666, 55.703288050046481, -999.0 ], [ 12.72881824200709, 55.70336267738341, -999.0 ], [ 12.728729193724401, 55.703931901952856, -999.0 ], [ 12.728931708388, 55.704051637641058, -999.0 ], [ 12.730969699880525, 55.704214466740112, -999.0 ], [ 12.731222905850876, 55.704197771524782, -999.0 ], [ 12.733766247199293, 55.703481913208236, -999.0 ], [ 12.733943947756375, 55.703341617895219, -999.0 ], [ 12.7338984936431, 55.703199124023122, -999.0 ], [ 12.733346732004328, 55.702757310869131, -999.0 ], [ 12.730936926597177, 55.703370183223157, -999.0 ], [ 12.729095505845207, 55.703264324001452, -999.0 ] ] ] } },
{ "type": "Feature", "properties": { "lau_1": "101", "label_en": "Copenhagen", "label_dk": "København", "iso_3166_2": "DK-84" }, "geometry": { "type": "Polygon", "coordinates": [ [ [ 12.553458171008362, 55.642142193576419, -999.0 ], [ 12.553969684670506, 55.642832045502757, -999.0 ], [ 12.554583919789401, 55.643660356691242, -999.0 ], [ 12.554842113020007, 55.643877662069379, -999.0 ], [ 12.562531373680967, 55.653608295841323, -999.0 ], [ 12.568199900506382, 55.66119434082686, -999.0 ], [ 12.579786797175856, 55.669974243492447, -999.0 ], [ 12.583550126769863, 55.672328065767275, -999.0 ], [ 12.587380627001778, 55.674194254017316, -999.0 ], [ 12.587403890982969, 55.674274499948289, -999.0 ], [ 12.587931536040244, 55.674526388202011, -999.0 ], [ 12.587936360031087, 55.674528674836459, -999.0 ], [ 12.596234441816343, 55.678080137756652, -999.0 ], [ 12.596706878886147, 55.678545727316049, -999.0 ], [ 12.599034259659183, 55.680839423482794, -999.0 ], [ 12.601619296771668, 55.684027577896643, -999.0 ], [ 12.60816173237747, 55.682657304387995, -999.0 ], [ 12.606641835559978, 55.678080176952115, -999.0 ], [ 12.607240296946667, 55.677666927888424, -999.0 ], [ 12.608959092347643, 55.678704371828708, -999.0 ], [ 12.609872244378115, 55.681186237325406, -999.0 ], [ 12.609779592260574, 55.683805613085205, -999.0 ], [ 12.604595791424478, 55.684030037990233, -999.0 ], [ 12.605766322810625, 55.685506263676359, -999.0 ], [ 12.605798017546, 55.686368554165668, -999.0 ], [ 12.60567893127735, 55.687741701823313, -999.0 ], [ 12.605558739920633, 55.689127110516765, -999.0 ], [ 12.607305472328683, 55.689426426316516, -999.0 ], [ 12.608341964347904, 55.687201907722311, -999.0 ], [ 12.608974656505856, 55.687448550689538, -999.0 ], [ 12.610207709784408, 55.687929291124043, -999.0 ], [ 12.610369245670169, 55.690370336132617, -999.0 ], [ 12.606738218824121, 55.691043669154631, -999.0 ], [ 12.608156221229915, 55.697149091305981, -999.0 ], [ 12.608190243759811, 55.697295287777038, -999.0 ], [ 12.611307034530844, 55.697599198115341, -999.0 ], [ 12.61973706152923, 55.698025083104, -999.0 ], [ 12.624908562610177, 55.697476698582271, -999.0 ], [ 12.625137449894881, 55.694448634233744, -999.0 ], [ 12.628356342686795, 55.694137636988451, -999.0 ], [ 12.626971542934712, 55.693288573896709, -999.0 ], [ 12.625250580444325, 55.692233266881615, -999.0 ], [ 12.6240659164569, 55.690442912570632, -999.0 ], [ 12.621645641400905, 55.690014549644793, -999.0 ], [ 12.613530678004601, 55.688577748835456, -999.0 ], [ 12.613635476513309, 55.6871269604571, -999.0 ], [ 12.618122949489534, 55.686769842591175, -999.0 ], [ 12.619872917322773, 55.687389806341706, -999.0 ], [ 12.626417438102671, 55.689707992036681, -999.0 ], [ 12.628209105456186, 55.68894463036203, -999.0 ], [ 12.628788070825449, 55.689008427313439, -999.0 ], [ 12.6328764495494, 55.690523922354693, -999.0 ], [ 12.635930979446032, 55.687762770853709, -999.0 ], [ 12.633235454909412, 55.686791948420471, -999.0 ], [ 12.624881636409413, 55.683782730850119, -999.0 ], [ 12.621385266093238, 55.681419543451909, -999.0 ], [ 12.620841003545287, 55.681051659653811, -999.0 ], [ 12.623262145041675, 55.678237320405778, -999.0 ], [ 12.628412230162395, 55.672249492014906, -999.0 ], [ 12.630872204362364, 55.670980728049322, -999.0 ], [ 12.633503306839925, 55.671900891818353, -999.0 ], [ 12.633497424674751, 55.672008970307402, -999.0 ], [ 12.630499341461062, 55.673995098698306, -999.0 ], [ 12.624957778131048, 55.680480425742786, -999.0 ], [ 12.627336784215167, 55.682109556115535, -999.0 ], [ 12.6355482389655, 55.685013572019677, -999.0 ], [ 12.639163012177088, 55.680410335317497, -999.0 ], [ 12.635385977151175, 55.679668136025299, -999.0 ], [ 12.635377649332371, 55.679578462800322, -999.0 ], [ 12.634272641201637, 55.679332467719547, -999.0 ], [ 12.632705212563996, 55.675818081895784, -999.0 ], [ 12.639482787641189, 55.676489311293821, -999.0 ], [ 12.640745284192297, 55.678942622858642, -999.0 ], [ 12.644787979423366, 55.679290102688377, -999.0 ], [ 12.648914844917439, 55.67558851624262, -999.0 ], [ 12.64652200412077, 55.674499731067279, -999.0 ], [ 12.644873478766918, 55.672003999269023, -999.0 ], [ 12.641882967484381, 55.671499394431244, -999.0 ], [ 12.641431296805361, 55.67100368115694, -999.0 ], [ 12.640833095102705, 55.670347044294537, -999.0 ], [ 12.638923977604568, 55.668251211403508, -999.0 ], [ 12.636871927224002, 55.669624940229212, -999.0 ], [ 12.636862550918133, 55.670380548682679, -999.0 ], [ 12.635159753364952, 55.670547946130682, -999.0 ], [ 12.634023715282082, 55.671507802891227, -999.0 ], [ 12.630653529688169, 55.670681475874829, -999.0 ], [ 12.630799098508252, 55.670571508879654, -999.0 ], [ 12.630802222716035, 55.670569168354746, -999.0 ], [ 12.632162110561197, 55.669620694527922, -999.0 ], [ 12.631552593166624, 55.669395966709502, -999.0 ], [ 12.631603018549113, 55.668567208165818, -999.0 ], [ 12.63441735031129, 55.665291640722643, -999.0 ], [ 12.631440917110719, 55.664588549143055, -999.0 ], [ 12.632257494087524, 55.664645285287726, -999.0 ], [ 12.632377117192519, 55.664048267802073, -999.0 ], [ 12.632737962818918, 55.663650918414092, -999.0 ], [ 12.635042215045832, 55.664310967152225, -999.0 ], [ 12.635462482102771, 55.663354341612482, -999.0 ], [ 12.635274447412435, 55.66115687086937, -999.0 ], [ 12.640674982620844, 55.653542184186364, -999.0 ], [ 12.641996693142703, 55.651164982483721, -999.0 ], [ 12.642024373723595, 55.651146265758747, -999.0 ], [ 12.646604195910655, 55.64804261464284, -999.0 ], [ 12.646554120006909, 55.648017128321726, -999.0 ], [ 12.648629788726948, 55.647766519114128, -999.0 ], [ 12.647928897429214, 55.646318255457125, -999.0 ], [ 12.625968233787072, 55.643790186259643, -999.0 ], [ 12.627290539741196, 55.641413132355218, -999.0 ], [ 12.61943628759224, 55.639343401999824, -999.0 ], [ 12.617393551352658, 55.640464770771011, -999.0 ], [ 12.60837349776553, 55.63919306448242, -999.0 ], [ 12.600338410607058, 55.638080599428157, -999.0 ], [ 12.592315687842861, 55.637965351879487, -999.0 ], [ 12.589666922391034, 55.622055382432059, -999.0 ], [ 12.571835893732255, 55.615751690581192, -999.0 ], [ 12.513224708940731, 55.613799673464207, -999.0 ], [ 12.5133109422075, 55.613870302626481, -999.0 ], [ 12.515283809997086, 55.615490113542464, -999.0 ], [ 12.51910423997454, 55.618508634225456, -999.0 ], [ 12.534902670358376, 55.630984814690109, -999.0 ], [ 12.551626180161986, 55.63996956922356, -999.0 ], [ 12.551698791038374, 55.640039309024338, -999.0 ], [ 12.55204409975919, 55.640371077765487, -999.0 ], [ 12.552412437814986, 55.640576203664899, -999.0 ], [ 12.552410395983399, 55.64072912260508, -999.0 ], [ 12.553458171008362, 55.642142193576419, -999.0 ] ] ] } },
{ "type": "Feature", "properties": { "lau_1": "101", "label_en": "Copenhagen", "label_dk": "København", "iso_3166_2": "DK-84" }, "geometry": { "type": "Polygon", "coordinates": [ [ [ 12.648598920502236, 55.64828897926045, -999.0 ], [ 12.647235990863642, 55.648509387427247, -999.0 ], [ 12.643095923362928, 55.65152796530672, -999.0 ], [ 12.645723449556048, 55.652933530408404, -999.0 ], [ 12.646886192349385, 55.65397798928057, -999.0 ], [ 12.646508866603792, 55.65505028042881, -999.0 ], [ 12.645226615625335, 55.656140492796794, -999.0 ], [ 12.642297977860826, 55.657828138775479, -999.0 ], [ 12.640426300202423, 55.657883740058743, -999.0 ], [ 12.640206460428749, 55.65945488551435, -999.0 ], [ 12.637170048929079, 55.662899048242387, -999.0 ], [ 12.63887378137156, 55.664628910064771, -999.0 ], [ 12.64189106242987, 55.660465909470993, -999.0 ], [ 12.645922784016911, 55.657297748937886, -999.0 ], [ 12.650528201842656, 55.654660876699573, -999.0 ], [ 12.648738447665059, 55.653203497464752, -999.0 ], [ 12.648003875816572, 55.65180461345993, -999.0 ], [ 12.647885346021914, 55.651385513318381, -999.0 ], [ 12.648894382739774, 55.648558937862184, -999.0 ], [ 12.648598920502236, 55.64828897926045, -999.0 ] ] ] } },
{ "type": "Feature", "properties": { "lau_1": "101", "label_en": "Copenhagen", "label_dk": "København", "iso_3166_2": "DK-84" }, "geometry": { "type": "Polygon", "coordinates": [ [ [ 12.478410187228388, 55.663882725921887, -999.0 ], [ 12.478221920052412, 55.665524514310135, -999.0 ], [ 12.478546305076565, 55.67204311478595, -999.0 ], [ 12.474519322817482, 55.672561907022676, -999.0 ], [ 12.474154387656961, 55.672931905253428, -999.0 ], [ 12.467166577647948, 55.685834562581817, -999.0 ], [ 12.466106253080998, 55.689676889759149, -999.0 ], [ 12.466002465411123, 55.693716961368644, -999.0 ], [ 12.463475261034329, 55.696278964729352, -999.0 ], [ 12.464101789855977, 55.701017715476581, -999.0 ], [ 12.463679329762938, 55.702899852556591, -999.0 ], [ 12.456775527115623, 55.704416322401521, -999.0 ], [ 12.454961224972877, 55.706229738397155, -999.0 ], [ 12.453040028904011, 55.712245088046089, -999.0 ], [ 12.457822457473366, 55.714457133850203, -999.0 ], [ 12.45863644000277, 55.716816898398633, -999.0 ], [ 12.466209137759833, 55.71886902133199, -999.0 ], [ 12.47079641732712, 55.718865222248937, -999.0 ], [ 12.472867603990469, 55.718869555009455, -999.0 ], [ 12.47750375953011, 55.722101030089682, -999.0 ], [ 12.484320751570861, 55.724766912855515, -999.0 ], [ 12.486740143881814, 55.724563316075148, -999.0 ], [ 12.488137782784122, 55.724514601458765, -999.0 ], [ 12.499322135428873, 55.720959212801006, -999.0 ], [ 12.504352563006192, 55.719853549580506, -999.0 ], [ 12.513481969081482, 55.719871195335486, -999.0 ], [ 12.51380172887667, 55.720770183798493, -999.0 ], [ 12.518289603371827, 55.726737848561079, -999.0 ], [ 12.521479264886365, 55.727833236482056, -999.0 ], [ 12.525593855439183, 55.726815927312515, -999.0 ], [ 12.535260131276685, 55.727113272286935, -999.0 ], [ 12.539024204035904, 55.726276444867281, -999.0 ], [ 12.541932048905807, 55.723728832735759, -999.0 ], [ 12.549376691762518, 55.723954291659417, -999.0 ], [ 12.555592427548623, 55.722929106757341, -999.0 ], [ 12.561358664631763, 55.722743886818087, -999.0 ], [ 12.561635521657751, 55.725082686012748, -999.0 ], [ 12.563641837209712, 55.73153442947774, -999.0 ], [ 12.566073785459682, 55.731292935386406, -999.0 ], [ 12.568193936062983, 55.730080361653648, -999.0 ], [ 12.576519592884562, 55.728947790634955, -999.0 ], [ 12.57773706740919, 55.722231417511921, -999.0 ], [ 12.583133769752058, 55.721840142123988, -999.0 ], [ 12.583416393346635, 55.719709825788129, -999.0 ], [ 12.583901409570194, 55.717528636647756, -999.0 ], [ 12.584022847763823, 55.717145275687486, -999.0 ], [ 12.584385853727907, 55.716000175494592, -999.0 ], [ 12.584445018682455, 55.715813305753066, -999.0 ], [ 12.5868743274543, 55.714339580870295, -999.0 ], [ 12.588351101652604, 55.712381137534081, -999.0 ], [ 12.590081633293423, 55.710586092105807, -999.0 ], [ 12.5917216687906, 55.710061517033935, -999.0 ], [ 12.592705999643263, 55.710374381893558, -999.0 ], [ 12.590645429818524, 55.712736620064192, -999.0 ], [ 12.595711293888083, 55.719673806424375, -999.0 ], [ 12.599117588754783, 55.71912433398353, -999.0 ], [ 12.600931590967793, 55.718756389464808, -999.0 ], [ 12.600969974030951, 55.718827197695212, -999.0 ], [ 12.603968846014984, 55.718352489024795, -999.0 ], [ 12.604769411149844, 55.719605813920587, -999.0 ], [ 12.600282414757539, 55.720528852751684, -999.0 ], [ 12.600768727090468, 55.721773350012569, -999.0 ], [ 12.601011987310143, 55.722395729867962, -999.0 ], [ 12.601480154635654, 55.72401850502245, -999.0 ], [ 12.602261762811294, 55.725397569197405, -999.0 ], [ 12.602412475261399, 55.725663619199452, -999.0 ], [ 12.603705871895212, 55.725176044552555, -999.0 ], [ 12.604297445828784, 55.724852944531314, -999.0 ], [ 12.60475327728347, 55.724785601846996, -999.0 ], [ 12.610975541246555, 55.722417874214592, -999.0 ], [ 12.623189916236941, 55.717768349331628, -999.0 ], [ 12.622861319032225, 55.716285392386098, -999.0 ], [ 12.618736612981051, 55.716811768112954, -999.0 ], [ 12.617860504766453, 55.715434868970327, -999.0 ], [ 12.619876939966783, 55.71488451637957, -999.0 ], [ 12.621775551573679, 55.71436620264172, -999.0 ], [ 12.617333470753939, 55.712321223331678, -999.0 ], [ 12.615848329846784, 55.711762549894679, -999.0 ], [ 12.611640129767661, 55.70965652752411, -999.0 ], [ 12.610448890242415, 55.709691594820377, -999.0 ], [ 12.604738989353198, 55.710840623097354, -999.0 ], [ 12.596266142576491, 55.712544998771691, -999.0 ], [ 12.595108912412929, 55.711391995603712, -999.0 ], [ 12.603272292514069, 55.709758741310274, -999.0 ], [ 12.604256946170857, 55.709037439735603, -999.0 ], [ 12.605333726669587, 55.708106608693633, -999.0 ], [ 12.595515991570458, 55.710103223325063, -999.0 ], [ 12.595034930187891, 55.709263906980766, -999.0 ], [ 12.594927960880106, 55.709077403963526, -999.0 ], [ 12.602273618158096, 55.707216398234799, -999.0 ], [ 12.603344797106624, 55.706051960247045, -999.0 ], [ 12.599032361150178, 55.706951866810947, -999.0 ], [ 12.591963614839189, 55.706107019012272, -999.0 ], [ 12.592608609723266, 55.704460607590356, -999.0 ], [ 12.595630580827148, 55.704767700756804, -999.0 ], [ 12.598652596305334, 55.705074718816476, -999.0 ], [ 12.598948552500881, 55.704310719468822, -999.0 ], [ 12.597605669811289, 55.703387985074031, -999.0 ], [ 12.594342283711994, 55.703052049253436, -999.0 ], [ 12.594691843924441, 55.700964688863699, -999.0 ], [ 12.594972544959628, 55.695876066469907, -999.0 ], [ 12.597547439125588, 55.695656694587768, -999.0 ], [ 12.598845908760737, 55.695753477672518, -999.0 ], [ 12.599299005992121, 55.698428749604631, -999.0 ], [ 12.599667476811836, 55.702778990498665, -999.0 ], [ 12.601268417139091, 55.703909931279156, -999.0 ], [ 12.600514918819515, 55.695551629702301, -999.0 ], [ 12.600096087107197, 55.694749261176966, -999.0 ], [ 12.599451887073085, 55.69351470273849, -999.0 ], [ 12.598855563462129, 55.691877699069593, -999.0 ], [ 12.599138646573778, 55.691320887444924, -999.0 ], [ 12.599274106264721, 55.69123598508051, -999.0 ], [ 12.599612652046941, 55.691109154306432, -999.0 ], [ 12.600692406966559, 55.690906611188268, -999.0 ], [ 12.59938291466106, 55.688265473207331, -999.0 ], [ 12.593801278688511, 55.681217701902298, -999.0 ], [ 12.593988379773243, 55.679102367392062, -999.0 ], [ 12.593988718230708, 55.6790991204006, -999.0 ], [ 12.593983778462988, 55.679045314003368, -999.0 ], [ 12.591348283872636, 55.67737811348551, -999.0 ], [ 12.580458501246026, 55.672274519395259, -999.0 ], [ 12.580453128106386, 55.672271439249542, -999.0 ], [ 12.579495611341468, 55.671728417060024, -999.0 ], [ 12.577697273070406, 55.670708452888256, -999.0 ], [ 12.577129616665813, 55.670386474513776, -999.0 ], [ 12.576297028510721, 55.669914235790877, -999.0 ], [ 12.576373091016352, 55.669876049816367, -999.0 ], [ 12.574933258703625, 55.669015264441668, -999.0 ], [ 12.573078522564677, 55.667906243127831, -999.0 ], [ 12.573074827297306, 55.667904102873237, -999.0 ], [ 12.571670850879613, 55.667162726274668, -999.0 ], [ 12.562585564766843, 55.66329984922384, -999.0 ], [ 12.562720195408748, 55.663206019101082, -999.0 ], [ 12.564140894849873, 55.662211595672723, -999.0 ], [ 12.563812910001058, 55.660179998546255, -999.0 ], [ 12.56112543614751, 55.660536842303536, -999.0 ], [ 12.55811841733277, 55.659302369355963, -999.0 ], [ 12.558330695511053, 55.658837628271939, -999.0 ], [ 12.563066241502064, 55.659140674007247, -999.0 ], [ 12.558605814014349, 55.653110883730236, -999.0 ], [ 12.549328728270623, 55.655331065087616, -999.0 ], [ 12.548757782492501, 55.65464624092769, -999.0 ], [ 12.552331230585718, 55.653715495689454, -999.0 ], [ 12.558632491944863, 55.651653443819853, -999.0 ], [ 12.553224116248012, 55.647602205756137, -999.0 ], [ 12.552534860333772, 55.647541259515435, -999.0 ], [ 12.546852456368645, 55.649585097419667, -999.0 ], [ 12.548032419862187, 55.650674912987029, -999.0 ], [ 12.5471965619715, 55.651454409656829, -999.0 ], [ 12.545222891999899, 55.651610418578734, -999.0 ], [ 12.543305031193533, 55.649921481876135, -999.0 ], [ 12.544447581823274, 55.645851167668035, -999.0 ], [ 12.544910359958591, 55.645693916331318, -999.0 ], [ 12.545588216288353, 55.645629350491802, -999.0 ], [ 12.546534267290356, 55.646420226267246, -999.0 ], [ 12.547075019965364, 55.646773238849889, -999.0 ], [ 12.547093686444072, 55.646979508337061, -999.0 ], [ 12.547827948657407, 55.647713561788962, -999.0 ], [ 12.553133886786515, 55.646256059381649, -999.0 ], [ 12.549593713707178, 55.64280761963105, -999.0 ], [ 12.54918099216912, 55.642405592610274, -999.0 ], [ 12.548669758033538, 55.641907507668783, -999.0 ], [ 12.547579819423891, 55.641282665326756, -999.0 ], [ 12.543388747240421, 55.642932500718075, -999.0 ], [ 12.541428914058274, 55.643061079832563, -999.0 ], [ 12.541277285569624, 55.642966552268319, -999.0 ], [ 12.540898450767694, 55.64264480452767, -999.0 ], [ 12.541531826384059, 55.640504460258697, -999.0 ], [ 12.544344887862431, 55.640495072602114, -999.0 ], [ 12.546001924971794, 55.639305190327242, -999.0 ], [ 12.540695722406696, 55.63652730697477, -999.0 ], [ 12.533326434054386, 55.632831488968911, -999.0 ], [ 12.531439384962038, 55.631884929245025, -999.0 ], [ 12.531249955359351, 55.631899379733213, -999.0 ], [ 12.531242984958572, 55.635352386467524, -999.0 ], [ 12.532571737559804, 55.636339143458727, -999.0 ], [ 12.53163259215358, 55.641266675853984, -999.0 ], [ 12.530799400616823, 55.642783299683941, -999.0 ], [ 12.531623144258671, 55.637984985707917, -999.0 ], [ 12.52260267440105, 55.637021730599784, -999.0 ], [ 12.519959102364037, 55.637322478521817, -999.0 ], [ 12.50919600228675, 55.634466095413551, -999.0 ], [ 12.507217904761768, 55.635808520179424, -999.0 ], [ 12.506530706334484, 55.635945075301301, -999.0 ], [ 12.506509863399085, 55.635905748994375, -999.0 ], [ 12.500671420869308, 55.641534499998251, -999.0 ], [ 12.500304453009386, 55.641697837535489, -999.0 ], [ 12.494308060087491, 55.645411611034561, -999.0 ], [ 12.490475480730399, 55.646473915018127, -999.0 ], [ 12.486054210432256, 55.652003636647521, -999.0 ], [ 12.485162219865456, 55.652523533134648, -999.0 ], [ 12.477849461881085, 55.657029150028343, -999.0 ], [ 12.478410187228388, 55.663882725921887, -999.0 ] ], [ [ 12.493297401611409, 55.672603817767147, -999.0 ], [ 12.495452401339101, 55.672326606573968, -999.0 ], [ 12.496144152215965, 55.670094969536684, -999.0 ], [ 12.496532801872629, 55.6689239799272, -999.0 ], [ 12.50494207182639, 55.669205387034673, -999.0 ], [ 12.506985685323759, 55.669641486335181, -999.0 ], [ 12.511008509380941, 55.669616271169239, -999.0 ], [ 12.51416465994393, 55.668797532563531, -999.0 ], [ 12.523312808193445, 55.666502878994308, -999.0 ], [ 12.530376886254469, 55.667747324669321, -999.0 ], [ 12.54753065207705, 55.673060819792518, -999.0 ], [ 12.549948526311459, 55.672703104392255, -999.0 ], [ 12.549898326110068, 55.67443096641945, -999.0 ], [ 12.555115418816996, 55.673533496437514, -999.0 ], [ 12.557320117747071, 55.681687996389826, -999.0 ], [ 12.553700700805443, 55.68161310673888, -999.0 ], [ 12.555272650604968, 55.683851438681927, -999.0 ], [ 12.554622259401579, 55.684400804573926, -999.0 ], [ 12.553154125909359, 55.684883945872656, -999.0 ], [ 12.546776310489454, 55.685284373289726, -999.0 ], [ 12.541216721801845, 55.687692958911406, -999.0 ], [ 12.538036511700366, 55.690545186367785, -999.0 ], [ 12.536815959899956, 55.690778207714381, -999.0 ], [ 12.534759289623075, 55.694443149393813, -999.0 ], [ 12.538282664194783, 55.697668464522934, -999.0 ], [ 12.535764436848678, 55.697462342915756, -999.0 ], [ 12.532152661625943, 55.697134808945854, -999.0 ], [ 12.53225428134731, 55.696673309475045, -999.0 ], [ 12.530634591821089, 55.696719943947762, -999.0 ], [ 12.529727144410748, 55.695837908472235, -999.0 ], [ 12.527812472776324, 55.695614254914432, -999.0 ], [ 12.522965051862123, 55.694467786719116, -999.0 ], [ 12.516621727866875, 55.690666558223995, -999.0 ], [ 12.506405294694087, 55.688567321101175, -999.0 ], [ 12.498875812820595, 55.686066924169481, -999.0 ], [ 12.498012455368691, 55.685489121244011, -999.0 ], [ 12.498268709048432, 55.685328955944378, -999.0 ], [ 12.493959918166034, 55.683060050383091, -999.0 ], [ 12.491502237682463, 55.679236729071029, -999.0 ], [ 12.493297401611409, 55.672603817767147, -999.0 ] ] ] } },
{ "type": "Feature", "properties": { "lau_1": "101", "label_en": "Copenhagen", "label_dk": "København", "iso_3166_2": "DK-84" }, "geometry": { "type": "Polygon", "coordinates": [ [ [ 12.615255619390823, 55.703136810093554, -999.0 ], [ 12.614727312130148, 55.702048352969911, -999.0 ], [ 12.613831814120543, 55.701490266272231, -999.0 ], [ 12.611506466367164, 55.703725807055804, -999.0 ], [ 12.612703179150914, 55.70392435501703, -999.0 ], [ 12.614721003381501, 55.703703051763362, -999.0 ], [ 12.615278050046149, 55.703183086773912, -999.0 ], [ 12.615255619390823, 55.703136810093554, -999.0 ] ] ] } },
{ "type": "Feature", "properties": { "lau_1": "147", "label_en": "Frederiksberg", "label_dk": "Frederiksberg", "iso_3166_2": "DK-84" }, "geometry": { "type": "Polygon", "coordinates": [ [ [ 12.516621727866875, 55.690666558223995, -999.0 ], [ 12.522965051862123, 55.694467786719116, -999.0 ], [ 12.527812472776324, 55.695614254914432, -999.0 ], [ 12.529727144410748, 55.695837908472235, -999.0 ], [ 12.530634591821089, 55.696719943947762, -999.0 ], [ 12.53225428134731, 55.696673309475045, -999.0 ], [ 12.532152661625943, 55.697134808945854, -999.0 ], [ 12.535764436848678, 55.697462342915756, -999.0 ], [ 12.538282664194783, 55.697668464522934, -999.0 ], [ 12.534759289623075, 55.694443149393813, -999.0 ], [ 12.536815959899956, 55.690778207714381, -999.0 ], [ 12.538036511700366, 55.690545186367785, -999.0 ], [ 12.541216721801845, 55.687692958911406, -999.0 ], [ 12.546776310489454, 55.685284373289726, -999.0 ], [ 12.553154125909359, 55.684883945872656, -999.0 ], [ 12.554622259401579, 55.684400804573926, -999.0 ], [ 12.555272650604968, 55.683851438681927, -999.0 ], [ 12.553700700805443, 55.68161310673888, -999.0 ], [ 12.557320117747071, 55.681687996389826, -999.0 ], [ 12.555115418816996, 55.673533496437514, -999.0 ], [ 12.549898326110068, 55.67443096641945, -999.0 ], [ 12.549948526311459, 55.672703104392255, -999.0 ], [ 12.54753065207705, 55.673060819792518, -999.0 ], [ 12.530376886254469, 55.667747324669321, -999.0 ], [ 12.523312808193445, 55.666502878994308, -999.0 ], [ 12.51416465994393, 55.668797532563531, -999.0 ], [ 12.511008509380941, 55.669616271169239, -999.0 ], [ 12.506985685323759, 55.669641486335181, -999.0 ], [ 12.50494207182639, 55.669205387034673, -999.0 ], [ 12.496532801872629, 55.6689239799272, -999.0 ], [ 12.496144152215965, 55.670094969536684, -999.0 ], [ 12.495452401339101, 55.672326606573968, -999.0 ], [ 12.493297401611409, 55.672603817767147, -999.0 ], [ 12.491502237682463, 55.679236729071029, -999.0 ], [ 12.493959918166034, 55.683060050383091, -999.0 ], [ 12.498268709048432, 55.685328955944378, -999.0 ], [ 12.498012455368691, 55.685489121244011, -999.0 ], [ 12.498875812820595, 55.686066924169481, -999.0 ], [ 12.506405294694087, 55.688567321101175, -999.0 ], [ 12.516621727866875, 55.690666558223995, -999.0 ] ] ] } },
{ "type": "Feature", "properties": { "lau_1": "157", "label_en": "Gentofte", "label_dk": "Gentofte", "iso_3166_2": "DK-84" }, "geometry": { "type": "Polygon", "coordinates": [ [ [ 12.578912915595117, 55.77489775441849, -999.0 ], [ 12.593025767969253, 55.779422951368829, -999.0 ], [ 12.593010642701273, 55.779350560623463, -999.0 ], [ 12.592267709717531, 55.776827627442039, -999.0 ], [ 12.592378616673255, 55.774567447930956, -999.0 ], [ 12.596237610104543, 55.771954760590326, -999.0 ], [ 12.596599152015671, 55.771377687201486, -999.0 ], [ 12.596692496448961, 55.770313921277854, -999.0 ], [ 12.596642017943186, 55.768382164635831, -999.0 ], [ 12.597031372744782, 55.766896102942525, -999.0 ], [ 12.597162958676615, 55.766766362261272, -999.0 ], [ 12.597285647687436, 55.766367128193416, -999.0 ], [ 12.598550802773547, 55.764693541671221, -999.0 ], [ 12.601498475902956, 55.762934622741284, -999.0 ], [ 12.600010208658786, 55.762879366538414, -999.0 ], [ 12.600010457944567, 55.759597347764583, -999.0 ], [ 12.601174734381537, 55.7595991645276, -999.0 ], [ 12.597963721050544, 55.757634199086311, -999.0 ], [ 12.592359205748192, 55.750965034841165, -999.0 ], [ 12.592358846485316, 55.750964595766469, -999.0 ], [ 12.590534860556449, 55.749507346613619, -999.0 ], [ 12.590991232777627, 55.749269200343029, -999.0 ], [ 12.590359602177266, 55.749161793749643, -999.0 ], [ 12.589926891264797, 55.748616960126334, -999.0 ], [ 12.588881956210846, 55.744879961404223, -999.0 ], [ 12.587528072247277, 55.743328178901066, -999.0 ], [ 12.587527896798631, 55.743328004194083, -999.0 ], [ 12.585469688874715, 55.740528767012648, -999.0 ], [ 12.584225326443525, 55.73964795520714, -999.0 ], [ 12.58422229456033, 55.739639231818359, -999.0 ], [ 12.582447287548638, 55.734511620805819, -999.0 ], [ 12.582299527762084, 55.732205048694851, -999.0 ], [ 12.580335664856609, 55.732163455734359, -999.0 ], [ 12.580568315745065, 55.731572202383695, -999.0 ], [ 12.581335273274593, 55.73055173370031, -999.0 ], [ 12.581959981842266, 55.729022880877999, -999.0 ], [ 12.586417764725248, 55.728461061389659, -999.0 ], [ 12.587883129104176, 55.727240296218291, -999.0 ], [ 12.586331217273955, 55.726476404778623, -999.0 ], [ 12.585443614040367, 55.727221688425587, -999.0 ], [ 12.582252010451022, 55.726298838595362, -999.0 ], [ 12.582694435040672, 55.724694375579794, -999.0 ], [ 12.585296287949008, 55.725094939059943, -999.0 ], [ 12.585092311352552, 55.723392458909053, -999.0 ], [ 12.584127381428303, 55.722251717744875, -999.0 ], [ 12.583133769752058, 55.721840142123988, -999.0 ], [ 12.57773706740919, 55.722231417511921, -999.0 ], [ 12.576519592884562, 55.728947790634955, -999.0 ], [ 12.568193936062983, 55.730080361653648, -999.0 ], [ 12.566073785459682, 55.731292935386406, -999.0 ], [ 12.563641837209712, 55.73153442947774, -999.0 ], [ 12.561635521657751, 55.725082686012748, -999.0 ], [ 12.561358664631763, 55.722743886818087, -999.0 ], [ 12.555592427548623, 55.722929106757341, -999.0 ], [ 12.549376691762518, 55.723954291659417, -999.0 ], [ 12.541932048905807, 55.723728832735759, -999.0 ], [ 12.539024204035904, 55.726276444867281, -999.0 ], [ 12.535260131276685, 55.727113272286935, -999.0 ], [ 12.525593855439183, 55.726815927312515, -999.0 ], [ 12.521479264886365, 55.727833236482056, -999.0 ], [ 12.52138257215786, 55.728528361508062, -999.0 ], [ 12.517842320751667, 55.735751208959414, -999.0 ], [ 12.518148559762219, 55.741452057407606, -999.0 ], [ 12.516201234915245, 55.743899610134747, -999.0 ], [ 12.51274357389728, 55.743027535906435, -999.0 ], [ 12.510038134619355, 55.744138961643415, -999.0 ], [ 12.500710843970261, 55.747489426901375, -999.0 ], [ 12.501676484442921, 55.75025822967023, -999.0 ], [ 12.498649142694466, 55.751522436671785, -999.0 ], [ 12.500476490523047, 55.756433626198302, -999.0 ], [ 12.500533713965192, 55.759561022133035, -999.0 ], [ 12.508778199387434, 55.762580572221331, -999.0 ], [ 12.516462795304918, 55.763089010425098, -999.0 ], [ 12.516703817735612, 55.763109081005787, -999.0 ], [ 12.51876896155242, 55.76337360132942, -999.0 ], [ 12.523294046092614, 55.764035073849314, -999.0 ], [ 12.52636997105933, 55.768424547989262, -999.0 ], [ 12.53917475056379, 55.773666844343452, -999.0 ], [ 12.547026304064801, 55.773350357553248, -999.0 ], [ 12.556744925074762, 55.771118023562416, -999.0 ], [ 12.563683237114947, 55.770763971016891, -999.0 ], [ 12.571491196919414, 55.774160742665956, -999.0 ], [ 12.578912915595117, 55.77489775441849, -999.0 ] ] ] } },
{ "type": "Feature", "properties": { "lau_1": "173", "label_en": "Lyngby-Taarbæk", "label_dk": "Lyngby-Taarbæk", "iso_3166_2": "DK-84" }, "geometry": { "type": "Polygon", "coordinates": [ [ [ 12.48091149530836, 55.798970679841148, -999.0 ], [ 12.489255417020869, 55.801062704300953, -999.0 ], [ 12.491048388738033, 55.797199411290279, -999.0 ], [ 12.494067047254434, 55.799891918528601, -999.0 ], [ 12.500028932187913, 55.798912953693439, -999.0 ], [ 12.523935763264625, 55.804334621203189, -999.0 ], [ 12.527986012148235, 55.802518964274242, -999.0 ], [ 12.544618427717703, 55.80355070524697, -999.0 ], [ 12.55061944559794, 55.807387636688574, -999.0 ], [ 12.560938917951162, 55.805875051428544, -999.0 ], [ 12.568223559860469, 55.809584018750407, -999.0 ], [ 12.582072347126834, 55.807916550580721, -999.0 ], [ 12.582525135415459, 55.807621186182345, -999.0 ], [ 12.587179500519873, 55.804068497818051, -999.0 ], [ 12.590224097333511, 55.795527306905335, -999.0 ], [ 12.594712194764975, 55.789155740504427, -999.0 ], [ 12.595953799131074, 55.788256179888073, -999.0 ], [ 12.595401096849333, 55.788146478290791, -999.0 ], [ 12.595484368558994, 55.787145953533134, -999.0 ], [ 12.595350824758727, 55.786043875464898, -999.0 ], [ 12.594120461596136, 55.784641209241173, -999.0 ], [ 12.593025767969253, 55.779422951368829, -999.0 ], [ 12.578912915595117, 55.77489775441849, -999.0 ], [ 12.571491196919414, 55.774160742665956, -999.0 ], [ 12.563683237114947, 55.770763971016891, -999.0 ], [ 12.556744925074762, 55.771118023562416, -999.0 ], [ 12.547026304064801, 55.773350357553248, -999.0 ], [ 12.53917475056379, 55.773666844343452, -999.0 ], [ 12.52636997105933, 55.768424547989262, -999.0 ], [ 12.523294046092614, 55.764035073849314, -999.0 ], [ 12.51876896155242, 55.76337360132942, -999.0 ], [ 12.516703817735612, 55.763109081005787, -999.0 ], [ 12.516462795304918, 55.763089010425098, -999.0 ], [ 12.508778199387434, 55.762580572221331, -999.0 ], [ 12.500533713965192, 55.759561022133035, -999.0 ], [ 12.479511299448898, 55.760392440654059, -999.0 ], [ 12.481456869898597, 55.76539943330561, -999.0 ], [ 12.479908877850656, 55.768428456949827, -999.0 ], [ 12.483451843094075, 55.7682740395027, -999.0 ], [ 12.487584224730767, 55.772751332624338, -999.0 ], [ 12.474651035657175, 55.77583338944693, -999.0 ], [ 12.469363133269683, 55.775209652446392, -999.0 ], [ 12.462800524837245, 55.769029047340709, -999.0 ], [ 12.458371785469897, 55.772687451126373, -999.0 ], [ 12.448192229059179, 55.773378345195304, -999.0 ], [ 12.438948031931137, 55.776721582260379, -999.0 ], [ 12.416424536384165, 55.774554037142295, -999.0 ], [ 12.413284458266313, 55.775675341641666, -999.0 ], [ 12.415044793645089, 55.783574566485598, -999.0 ], [ 12.419024922569101, 55.793120315075335, -999.0 ], [ 12.416473096465896, 55.795142397206988, -999.0 ], [ 12.435107916266928, 55.802130303067997, -999.0 ], [ 12.439511581461851, 55.802105983065928, -999.0 ], [ 12.439102046514083, 55.799635877173792, -999.0 ], [ 12.453296945035195, 55.799507369179217, -999.0 ], [ 12.473242164567385, 55.802109960776974, -999.0 ], [ 12.473173512640887, 55.797040795250474, -999.0 ], [ 12.48091149530836, 55.798970679841148, -999.0 ] ] ] } }
]
}
